name,code,landline,email,phone,country,state,city,street,postal code,fax,website,image,other detail,DLI#,logo
Accadis Hochschule Bad Homburg - University of Applied Sciences ,AHBH4775,,,,Germany,,Hesse,,,,http://international-students.accadis.com/,,,,Accadis.jpg
Accadis Hochschule Bad Homburg - University of Applied Sciences ,AHBH4775,,,,Germany,,Hesse,,,,http://international-students.accadis.com/,,,,Accadis.jpg
Accadis Hochschule Bad Homburg - University of Applied Sciences ,AHBH4775,,,,Germany,,Hesse,,,,http://international-students.accadis.com/,,,,Accadis.jpg
Accadis Hochschule Bad Homburg - University of Applied Sciences ,AHBH4775,,,,Germany,,Hesse,,,,http://international-students.accadis.com/,,,,Accadis.jpg
Accadis Hochschule Bad Homburg - University of Applied Sciences ,AHBH4775,,,,Germany,,Hesse,,,,http://international-students.accadis.com/,,,,Accadis.jpg
Arden University Berlin Study Center,AUBS4775,,,,Germany,,Berlin,,,,http://arden.ac.uk/where-to-study/berlin,,,,Arden.jpg
Arden University Berlin Study Center,AUBS4775,,,,Germany,,Berlin,,,,http://arden.ac.uk/where-to-study/berlin,,,,Arden.jpg
Arden University Berlin Study Center,AUBS4775,,,,Germany,,Berlin,,,,http://arden.ac.uk/where-to-study/berlin,,,,Arden.jpg
Arden University Berlin Study Center,AUBS4775,,,,Germany,,Berlin,,,,http://arden.ac.uk/where-to-study/berlin,,,,Arden.jpg
Arden University Berlin Study Center,AUBS4775,,,,Germany,,Berlin,,,,http://arden.ac.uk/where-to-study/berlin,,,,Arden.jpg
Arden University Berlin Study Center,AUBS4775,,,,Germany,,Berlin,,,,http://arden.ac.uk/where-to-study/berlin,,,,Arden.jpg
Arden University Berlin Study Center,AUBS4775,,,,Germany,,Berlin,,,,http://arden.ac.uk/where-to-study/berlin,,,,Arden.jpg
Arden University Berlin Study Center,AUBS4775,,,,Germany,,Berlin,,,,http://arden.ac.uk/where-to-study/berlin,,,,Arden.jpg
Arden University Berlin Study Center,AUBS4775,,,,Germany,,Berlin,,,,http://arden.ac.uk/where-to-study/berlin,,,,Arden.jpg
Arden University Berlin Study Center,AUBS4775,,,,Germany,,Berlin,,,,http://arden.ac.uk/where-to-study/berlin,,,,Arden.jpg
Arden University Berlin Study Center,AUBS4775,,,,Germany,,Berlin,,,,http://arden.ac.uk/where-to-study/berlin,,,,Arden.jpg
Arden University Berlin Study Center,AUBS4775,,,,Germany,,Berlin,,,,http://arden.ac.uk/where-to-study/berlin,,,,Arden.jpg
Arden University Berlin Study Center,AUBS4775,,,,Germany,,Berlin,,,,http://arden.ac.uk/where-to-study/berlin,,,,Arden.jpg
Arden University Berlin Study Center,AUBS4775,,,,Germany,,Berlin,,,,http://arden.ac.uk/where-to-study/berlin,,,,Arden.jpg
Arden University Berlin Study Center,AUBS4775,,,,Germany,,Berlin,,,,http://arden.ac.uk/where-to-study/berlin,,,,Arden.jpg
Arden University Berlin Study Center,AUBS4775,,,,Germany,,Berlin,,,,http://arden.ac.uk/where-to-study/berlin,,,,Arden.jpg
Arden University Berlin Study Center,AUBS4775,,,,Germany,,Berlin,,,,http://arden.ac.uk/where-to-study/berlin,,,,Arden.jpg
Arden University Berlin Study Center,AUBS4775,,,,Germany,,Berlin,,,,http://arden.ac.uk/where-to-study/berlin,,,,Arden.jpg
Arden University Berlin Study Center,AUBS4775,,,,Germany,,Berlin,,,,http://arden.ac.uk/where-to-study/berlin,,,,Arden.jpg
Arden University Berlin Study Center,AUBS4775,,,,Germany,,Berlin,,,,http://arden.ac.uk/where-to-study/berlin,,,,Arden.jpg
Arden University Berlin Study Center,AUBS4775,,,,Germany,,Berlin,,,,http://arden.ac.uk/where-to-study/berlin,,,,Arden.jpg
Arden University Berlin Study Center,AUBS4775,,,,Germany,,Berlin,,,,http://arden.ac.uk/where-to-study/berlin,,,,Arden.jpg
Arden University Berlin Study Center,AUBS4775,,,,Germany,,Berlin,,,,http://arden.ac.uk/where-to-study/berlin,,,,Arden.jpg
Arden University Berlin Study Center,AUBS4775,,,,Germany,,Berlin,,,,http://arden.ac.uk/where-to-study/berlin,,,,Arden.jpg
Arden University Berlin Study Center,AUBS4775,,,,Germany,,Berlin,,,,http://arden.ac.uk/where-to-study/berlin,,,,Arden.jpg
Arden University Berlin Study Center,AUBS4775,,,,Germany,,Berlin,,,,http://arden.ac.uk/where-to-study/berlin,,,,Arden.jpg
Arden University Berlin Study Center,AUBS4775,,,,Germany,,Berlin,,,,http://arden.ac.uk/where-to-study/berlin,,,,Arden.jpg
Arden University Berlin Study Center,AUBS4775,,,,Germany,,Berlin,,,,http://arden.ac.uk/where-to-study/berlin,,,,Arden.jpg
Arden University Berlin Study Center,AUBS4775,,,,Germany,,Berlin,,,,http://arden.ac.uk/where-to-study/berlin,,,,Arden.jpg
Arden University Berlin Study Center,AUBS4775,,,,Germany,,Berlin,,,,http://arden.ac.uk/where-to-study/berlin,,,,Arden.jpg
Arden University Berlin Study Center,AUBS4775,,,,Germany,,Berlin,,,,http://arden.ac.uk/where-to-study/berlin,,,,Arden.jpg
Arden University Berlin Study Center,AUBS4775,,,,Germany,,Berlin,,,,http://arden.ac.uk/where-to-study/berlin,,,,Arden.jpg
Arden University Berlin Study Center,AUBS4775,,,,Germany,,Berlin,,,,http://arden.ac.uk/where-to-study/berlin,,,,Arden.jpg
Arden University Berlin Study Center,AUBS4775,,,,Germany,,Berlin,,,,http://arden.ac.uk/where-to-study/berlin,,,,Arden.jpg
Arden University Berlin Study Center,AUBS4775,,,,Germany,,Berlin,,,,http://arden.ac.uk/where-to-study/berlin,,,,Arden.jpg
Arden University Berlin Study Center,AUBS4775,,,,Germany,,Berlin,,,,http://arden.ac.uk/where-to-study/berlin,,,,Arden.jpg
Berlin School of Business and Innovation (BSBI),BSBI4775,,,,Germany,,Berlin,,,,http://berlinsbi.com/,,,,Berlin.jpg
Berlin School of Business and Innovation (BSBI),BSBI4775,,,,Germany,,Berlin,,,,http://berlinsbi.com/,,,,Berlin.jpg
Berlin School of Business and Innovation (BSBI),BSBI4775,,,,Germany,,Berlin,,,,http://berlinsbi.com/,,,,Berlin.jpg
Berlin School of Business and Innovation (BSBI),BSBI4775,,,,Germany,,Berlin,,,,http://berlinsbi.com/,,,,Berlin.jpg
Berlin School of Business and Innovation (BSBI),BSBI4775,,,,Germany,,Berlin,,,,http://berlinsbi.com/,,,,Berlin.jpg
Berlin School of Business and Innovation (BSBI),BSBI4775,,,,Germany,,Berlin,,,,http://berlinsbi.com/,,,,Berlin.jpg
Berlin School of Business and Innovation (BSBI),BSBI4775,,,,Germany,,Berlin,,,,http://berlinsbi.com/,,,,Berlin.jpg
Berlin School of Business and Innovation (BSBI),BSBI4775,,,,Germany,,Berlin,,,,http://berlinsbi.com/,,,,Berlin.jpg
Berlin School of Business and Innovation (BSBI),BSBI4775,,,,Germany,,Berlin,,,,http://berlinsbi.com/,,,,Berlin.jpg
Berlin School of Business and Innovation (BSBI),BSBI4775,,,,Germany,,Berlin,,,,http://berlinsbi.com/,,,,Berlin.jpg
Berlin School of Business and Innovation (BSBI),BSBI4775,,,,Germany,,Berlin,,,,http://berlinsbi.com/,,,,Berlin.jpg
Berlin School of Business and Innovation (BSBI),BSBI4775,,,,Germany,,Berlin,,,,http://berlinsbi.com/,,,,Berlin.jpg
Berlin School of Business and Innovation (BSBI),BSBI4775,,,,Germany,,Berlin,,,,http://berlinsbi.com/,,,,Berlin.jpg
Berlin School of Business and Innovation (BSBI),BSBI4775,,,,Germany,,Berlin,,,,http://berlinsbi.com/,,,,Berlin.jpg
Berlin School of Business and Innovation (BSBI),BSBI4775,,,,Germany,,Berlin,,,,http://berlinsbi.com/,,,,Berlin.jpg
Berlin School of Business and Innovation (BSBI),BSBI4775,,,,Germany,,Berlin,,,,http://berlinsbi.com/,,,,Berlin.jpg
Berlin School of Business and Innovation (BSBI),BSBI4775,,,,Germany,,Berlin,,,,http://berlinsbi.com/,,,,Berlin.jpg
Berlin School of Business and Innovation (BSBI),BSBI4775,,,,Germany,,Berlin,,,,http://berlinsbi.com/,,,,Berlin.jpg
Berlin School of Business and Innovation (BSBI),BSBI4775,,,,Germany,,Berlin,,,,http://berlinsbi.com/,,,,Berlin.jpg
Berlin School of Business and Innovation (BSBI),BSBI4775,,,,Germany,,Berlin,,,,http://berlinsbi.com/,,,,Berlin.jpg
Berlin School of Business and Innovation (BSBI),BSBI4775,,,,Germany,,Berlin,,,,http://berlinsbi.com/,,,,Berlin.jpg
Berlin School of Business and Innovation (BSBI),BSBI4775,,,,Germany,,Berlin,,,,http://berlinsbi.com/,,,,Berlin.jpg
Berlin School of Business and Innovation (BSBI),BSBI4775,,,,Germany,,Berlin,,,,http://berlinsbi.com/,,,,Berlin.jpg
Berlin School of Business and Innovation (BSBI),BSBI4775,,,,Germany,,Berlin,,,,http://berlinsbi.com/,,,,Berlin.jpg
Berlin School of Business and Innovation (BSBI),BSBI4775,,,,Germany,,Berlin,,,,http://berlinsbi.com/,,,,Berlin.jpg
Berlin School of Business and Innovation (BSBI),BSBI4775,,,,Germany,,Berlin,,,,http://berlinsbi.com/,,,,Berlin.jpg
Berlin School of Business and Innovation (BSBI),BSBI4775,,,,Germany,,Berlin,,,,http://berlinsbi.com/,,,,Berlin.jpg
Berlin School of Business and Innovation (BSBI),BSBI4775,,,,Germany,,Berlin,,,,http://berlinsbi.com/,,,,Berlin.jpg
Berlin School of Business and Innovation (BSBI),BSBI4775,,,,Germany,,Berlin,,,,http://berlinsbi.com/,,,,Berlin.jpg
Berlin School of Business and Innovation (BSBI),BSBI4775,,,,Germany,,Berlin,,,,http://berlinsbi.com/,,,,Berlin.jpg
Berlin School of Business and Innovation (BSBI),BSBI4775,,,,Germany,,Berlin,,,,http://berlinsbi.com/,,,,Berlin.jpg
Berlin School of Business and Innovation (BSBI),BSBI4775,,,,Germany,,Berlin,,,,http://berlinsbi.com/,,,,Berlin.jpg
Berlin School of Business and Innovation (BSBI),BSBI4775,,,,Germany,,Berlin,,,,http://berlinsbi.com/,,,,Berlin.jpg
Berlin School of Business and Innovation (BSBI),BSBI4775,,,,Germany,,Berlin,,,,http://berlinsbi.com/,,,,Berlin.jpg
Berlin School of Business and Innovation (BSBI),BSBI4775,,,,Germany,,Berlin,,,,http://berlinsbi.com/,,,,Berlin.jpg
Berlin School of Business and Innovation (BSBI),BSBI4775,,,,Germany,,Berlin,,,,http://berlinsbi.com/,,,,Berlin.jpg
Berlin School of Business and Innovation (BSBI),BSBI4775,,,,Germany,,Berlin,,,,http://berlinsbi.com/,,,,Berlin.jpg
Berlin School of Business and Innovation (BSBI),BSBI4775,,,,Germany,,Berlin,,,,http://berlinsbi.com/,,,,Berlin.jpg
Berlin School of Business and Innovation (BSBI),BSBI4775,,,,Germany,,Berlin,,,,http://berlinsbi.com/,,,,Berlin.jpg
Berlin School of Business and Innovation (BSBI),BSBI4775,,,,Germany,,Berlin,,,,http://berlinsbi.com/,,,,Berlin.jpg
Berlin School of Business and Innovation (BSBI),BSBI4775,,,,Germany,,Berlin,,,,http://berlinsbi.com/,,,,Berlin.jpg
Berlin School of Business and Innovation (BSBI),BSBI4775,,,,Germany,,Berlin,,,,http://berlinsbi.com/,,,,Berlin.jpg
Berlin School of Business and Innovation (BSBI),BSBI4775,,,,Germany,,Berlin,,,,http://berlinsbi.com/,,,,Berlin.jpg
Berlin School of Business and Innovation (BSBI),BSBI4775,,,,Germany,,Berlin,,,,http://berlinsbi.com/,,,,Berlin.jpg
Berlin School of Business and Innovation (BSBI),BSBI4775,,,,Germany,,Berlin,,,,http://berlinsbi.com/,,,,Berlin.jpg
Cologne Business School,CBSL4775,,,,Germany,,Cologne,,,,http://www.cbs.de/,,,,Cologne.jpg
Cologne Business School,CBSL4775,,,,Germany,,Cologne,,,,http://www.cbs.de/,,,,Cologne.jpg
Cologne Business School,CBSL4775,,,,Germany,,Cologne,,,,http://www.cbs.de/,,,,Cologne.jpg
Cologne Business School,CBSL4775,,,,Germany,,Cologne,,,,http://www.cbs.de/,,,,Cologne.jpg
Cologne Business School,CBSL4775,,,,Germany,,Cologne,,,,http://www.cbs.de/,,,,Cologne.jpg
Cologne Business School,CBSL4775,,,,Germany,,Cologne,,,,http://www.cbs.de/,,,,Cologne.jpg
Cologne Business School,CBSL4775,,,,Germany,,Cologne,,,,http://www.cbs.de/,,,,Cologne.jpg
Cologne Business School,CBSL4775,,,,Germany,,Cologne,,,,http://www.cbs.de/,,,,Cologne.jpg
Cologne Business School,CBSL4775,,,,Germany,,Cologne,,,,http://www.cbs.de/,,,,Cologne.jpg
Cologne Business School,CBSL4775,,,,Germany,,Cologne,,,,http://www.cbs.de/,,,,Cologne.jpg
Cologne Business School,CBSL4775,,,,Germany,,Cologne,,,,http://www.cbs.de/,,,,Cologne.jpg
Cologne Business School,CBSL4775,,,,Germany,,Cologne,,,,http://www.cbs.de/,,,,Cologne.jpg
Cologne Business School,CBSL4775,,,,Germany,,Cologne,,,,http://www.cbs.de/,,,,Cologne.jpg
Cologne Business School,CBSL4775,,,,Germany,,Cologne,,,,http://www.cbs.de/,,,,Cologne.jpg
Cologne Business School,CBSL4775,,,,Germany,,Cologne,,,,http://www.cbs.de/,,,,Cologne.jpg
Cologne Business School,CBSL4775,,,,Germany,,Cologne,,,,http://www.cbs.de/,,,,Cologne.jpg
Cologne Business School,CBSL4775,,,,Germany,,Cologne,,,,http://www.cbs.de/,,,,Cologne.jpg
Cologne Business School,CBSL4775,,,,Germany,,Cologne,,,,http://www.cbs.de/,,,,Cologne.jpg
Cologne Business School,CBSL4775,,,,Germany,,Cologne,,,,http://www.cbs.de/,,,,Cologne.jpg
Cologne Business School,CBSL4775,,,,Germany,,Cologne,,,,http://www.cbs.de/,,,,Cologne.jpg
Cologne Business School,CBSL4775,,,,Germany,,Cologne,,,,http://www.cbs.de/,,,,Cologne.jpg
Cologne Business School,CBSL4775,,,,Germany,,Cologne,,,,http://www.cbs.de/,,,,Cologne.jpg
Cologne Business School,CBSL4775,,,,Germany,,Cologne,,,,http://www.cbs.de/,,,,Cologne.jpg
Cologne Business School,CBSL4775,,,,Germany,,Cologne,,,,http://www.cbs.de/,,,,Cologne.jpg
Cologne Business School,CBSL4775,,,,Germany,,Cologne,,,,http://www.cbs.de/,,,,Cologne.jpg
Cologne Business School,CBSL4775,,,,Germany,,Cologne,,,,http://www.cbs.de/,,,,Cologne.jpg
Cologne Business School,CBSL4775,,,,Germany,,Cologne,,,,http://www.cbs.de/,,,,Cologne.jpg
Cologne Business School,CBSL4775,,,,Germany,,Cologne,,,,http://www.cbs.de/,,,,Cologne.jpg
Cologne Business School,CBSL4775,,,,Germany,,Cologne,,,,http://www.cbs.de/,,,,Cologne.jpg
Cologne Business School,CBSL4775,,,,Germany,,Cologne,,,,http://www.cbs.de/,,,,Cologne.jpg
Cologne Business School,CBSL4775,,,,Germany,,Cologne,,,,http://www.cbs.de/,,,,Cologne.jpg
Cologne Business School,CBSL4775,,,,Germany,,Cologne,,,,http://www.cbs.de/,,,,Cologne.jpg
Cologne Business School,CBSL4775,,,,Germany,,Cologne,,,,http://www.cbs.de/,,,,Cologne.jpg
Cologne Business School,CBSL4775,,,,Germany,,Cologne,,,,http://www.cbs.de/,,,,Cologne.jpg
Cologne Business School,CBSL4775,,,,Germany,,Cologne,,,,http://www.cbs.de/,,,,Cologne.jpg
Cologne Business School,CBSL4775,,,,Germany,,Cologne,,,,http://www.cbs.de/,,,,Cologne.jpg
Cologne Business School,CBSL4775,,,,Germany,,Cologne,,,,http://www.cbs.de/,,,,Cologne.jpg
Cologne Business School,CBSL4775,,,,Germany,,Cologne,,,,http://www.cbs.de/,,,,Cologne.jpg
Cologne Business School,CBSL4775,,,,Germany,,Cologne,,,,http://www.cbs.de/,,,,Cologne.jpg
Cologne Business School,CBSL4775,,,,Germany,,Cologne,,,,http://www.cbs.de/,,,,Cologne.jpg
Cologne Business School,CBSL4775,,,,Germany,,Cologne,,,,http://www.cbs.de/,,,,Cologne.jpg
Cologne Business School,CBSL4775,,,,Germany,,Cologne,,,,http://www.cbs.de/,,,,Cologne.jpg
Cologne Business School,CBSL4775,,,,Germany,,Cologne,,,,http://www.cbs.de/,,,,Cologne.jpg
Cologne Business School,CBSL4775,,,,Germany,,Cologne,,,,http://www.cbs.de/,,,,Cologne.jpg
Cologne Business School,CBSL4775,,,,Germany,,Cologne,,,,http://www.cbs.de/,,,,Cologne.jpg
Cologne Business School,CBSL4775,,,,Germany,,Cologne,,,,http://www.cbs.de/,,,,Cologne.jpg
Cologne Business School,CBSL4775,,,,Germany,,Cologne,,,,http://www.cbs.de/,,,,Cologne.jpg
Cologne Business School,CBSL4775,,,,Germany,,Cologne,,,,http://www.cbs.de/,,,,Cologne.jpg
Cologne Business School,CBSL4775,,,,Germany,,Cologne,,,,http://www.cbs.de/,,,,Cologne.jpg
Cologne Business School,CBSL4775,,,,Germany,,Cologne,,,,http://www.cbs.de/,,,,Cologne.jpg
Cologne Business School,CBSL4775,,,,Germany,,Cologne,,,,http://www.cbs.de/,,,,Cologne.jpg
Cologne Business School,CBSL4775,,,,Germany,,Cologne,,,,http://www.cbs.de/,,,,Cologne.jpg
Cologne Business School,CBSL4775,,,,Germany,,Cologne,,,,http://www.cbs.de/,,,,Cologne.jpg
Cologne Business School,CBSL4775,,,,Germany,,Cologne,,,,http://www.cbs.de/,,,,Cologne.jpg
Cologne Business School,CBSL4775,,,,Germany,,Cologne,,,,http://www.cbs.de/,,,,Cologne.jpg
Cologne Business School,CBSL4775,,,,Germany,,Cologne,,,,http://www.cbs.de/,,,,Cologne.jpg
Cologne Business School,CBSL4775,,,,Germany,,Cologne,,,,http://www.cbs.de/,,,,Cologne.jpg
Cologne Business School,CBSL4775,,,,Germany,,Cologne,,,,http://www.cbs.de/,,,,Cologne.jpg
Cologne Business School,CBSL4775,,,,Germany,,Cologne,,,,http://www.cbs.de/,,,,Cologne.jpg
Cologne Business School,CBSL4775,,,,Germany,,Cologne,,,,http://www.cbs.de/,,,,Cologne.jpg
Cologne Business School,CBSL4775,,,,Germany,,Cologne,,,,http://www.cbs.de/,,,,Cologne.jpg
Cologne Business School,CBSL4775,,,,Germany,,Cologne,,,,http://www.cbs.de/,,,,Cologne.jpg
Cologne Business School,CBSL4775,,,,Germany,,Cologne,,,,http://www.cbs.de/,,,,Cologne.jpg
Cologne Business School,CBSL4775,,,,Germany,,Cologne,,,,http://www.cbs.de/,,,,Cologne.jpg
Cologne Business School,CBSL4775,,,,Germany,,Cologne,,,,http://www.cbs.de/,,,,Cologne.jpg
Cologne Business School,CBSL4775,,,,Germany,,Cologne,,,,http://www.cbs.de/,,,,Cologne.jpg
Cologne Business School,CBSL4775,,,,Germany,,Cologne,,,,http://www.cbs.de/,,,,Cologne.jpg
Cologne Business School,CBSL4775,,,,Germany,,Cologne,,,,http://www.cbs.de/,,,,Cologne.jpg
Cologne Business School,CBSL4775,,,,Germany,,Cologne,,,,http://www.cbs.de/,,,,Cologne.jpg
EBS University,EBSU4775,,,,Germany,,Wiesbaden,,,,http://www.ebs.edu/en,,,,EBS.jpg
EBS University,EBSU4775,,,,Germany,,Wiesbaden,,,,http://www.ebs.edu/en,,,,EBS.jpg
EBS University,EBSU4775,,,,Germany,,Wiesbaden,,,,http://www.ebs.edu/en,,,,EBS.jpg
EBS University,EBSU4775,,,,Germany,,Wiesbaden,,,,http://www.ebs.edu/en,,,,EBS.jpg
EBS University,EBSU4775,,,,Germany,,Wiesbaden,,,,http://www.ebs.edu/en,,,,EBS.jpg
EBS University,EBSU4775,,,,Germany,,Wiesbaden,,,,http://www.ebs.edu/en,,,,EBS.jpg
EBS University,EBSU4775,,,,Germany,,Wiesbaden,,,,http://www.ebs.edu/en,,,,EBS.jpg
EBS University,EBSU4775,,,,Germany,,Wiesbaden,,,,http://www.ebs.edu/en,,,,EBS.jpg
EBS University,EBSU4775,,,,Germany,,Wiesbaden,,,,http://www.ebs.edu/en,,,,EBS.jpg
EBS University,EBSU4775,,,,Germany,,Wiesbaden,,,,http://www.ebs.edu/en,,,,EBS.jpg
EBS University,EBSU4775,,,,Germany,,Wiesbaden,,,,http://www.ebs.edu/en,,,,EBS.jpg
EIIE Eurasia Institute for International Education GmbH,EIIE4775,,,,Germany,,Berlin,,,,http://www.eurasia-institute.com/,,,,EIIE.jpg
EIIE Eurasia Institute for International Education GmbH,EIIE4775,,,,Germany,,Berlin,,,,http://www.eurasia-institute.com/,,,,EIIE.jpg
EIIE Eurasia Institute for International Education GmbH,EIIE4775,,,,Germany,,Berlin,,,,http://www.eurasia-institute.com/,,,,EIIE.jpg
EIIE Eurasia Institute for International Education GmbH,EIIE4775,,,,Germany,,Berlin,,,,http://www.eurasia-institute.com/,,,,EIIE.jpg
EIIE Eurasia Institute for International Education GmbH,EIIE4775,,,,Germany,,Berlin,,,,http://www.eurasia-institute.com/,,,,EIIE.jpg
EIIE Eurasia Institute for International Education GmbH,EIIE4775,,,,Germany,,Berlin,,,,http://www.eurasia-institute.com/,,,,EIIE.jpg
EIIE Eurasia Institute for International Education GmbH,EIIE4775,,,,Germany,,Berlin,,,,http://www.eurasia-institute.com/,,,,EIIE.jpg
EIIE Eurasia Institute for International Education GmbH,EIIE4775,,,,Germany,,Berlin,,,,http://www.eurasia-institute.com/,,,,EIIE.jpg
EIIE Eurasia Institute for International Education GmbH,EIIE4775,,,,Germany,,Berlin,,,,http://www.eurasia-institute.com/,,,,EIIE.jpg
EU Business School (Germany),EUBS4775,,,,Germany,,Munich,,,,http://www.euruni.edu/,,,,EU.jpg
EU Business School (Germany),EUBS4775,,,,Germany,,Munich,,,,http://www.euruni.edu/,,,,EU.jpg
EU Business School (Germany),EUBS4775,,,,Germany,,Munich,,,,http://www.euruni.edu/,,,,EU.jpg
EU Business School (Germany),EUBS4775,,,,Germany,,Munich,,,,http://www.euruni.edu/,,,,EU.jpg
EU Business School (Germany),EUBS4775,,,,Germany,,Munich,,,,http://www.euruni.edu/,,,,EU.jpg
EU Business School (Germany),EUBS4775,,,,Germany,,Munich,,,,http://www.euruni.edu/,,,,EU.jpg
EU Business School (Germany),EUBS4775,,,,Germany,,Munich,,,,http://www.euruni.edu/,,,,EU.jpg
EU Business School (Germany),EUBS4775,,,,Germany,,Munich,,,,http://www.euruni.edu/,,,,EU.jpg
EU Business School (Germany),EUBS4775,,,,Germany,,Munich,,,,http://www.euruni.edu/,,,,EU.jpg
EU Business School (Germany),EUBS4775,,,,Germany,,Munich,,,,http://www.euruni.edu/,,,,EU.jpg
EU Business School (Germany),EUBS4775,,,,Germany,,Munich,,,,http://www.euruni.edu/,,,,EU.jpg
EU Business School (Germany),EUBS4775,,,,Germany,,Munich,,,,http://www.euruni.edu/,,,,EU.jpg
EU Business School (Germany),EUBS4775,,,,Germany,,Munich,,,,http://www.euruni.edu/,,,,EU.jpg
EU Business School (Germany),EUBS4775,,,,Germany,,Munich,,,,http://www.euruni.edu/,,,,EU.jpg
EU Business School (Germany),EUBS4775,,,,Germany,,Munich,,,,http://www.euruni.edu/,,,,EU.jpg
EU Business School (Germany),EUBS4775,,,,Germany,,Munich,,,,http://www.euruni.edu/,,,,EU.jpg
EU Business School (Germany),EUBS4775,,,,Germany,,Munich,,,,http://www.euruni.edu/,,,,EU.jpg
EU Business School (Germany),EUBS4775,,,,Germany,,Munich,,,,http://www.euruni.edu/,,,,EU.jpg
EU Business School (Germany),EUBS4775,,,,Germany,,Munich,,,,http://www.euruni.edu/,,,,EU.jpg
EU Business School (Germany),EUBS4775,,,,Germany,,Munich,,,,http://www.euruni.edu/,,,,EU.jpg
EU Business School (Germany),EUBS4775,,,,Germany,,Munich,,,,http://www.euruni.edu/,,,,EU.jpg
EU Business School (Germany),EUBS4775,,,,Germany,,Munich,,,,http://www.euruni.edu/,,,,EU.jpg
EU Business School (Germany),EUBS4775,,,,Germany,,Munich,,,,http://www.euruni.edu/,,,,EU.jpg
EU Business School (Germany),EUBS4775,,,,Germany,,Munich,,,,http://www.euruni.edu/,,,,EU.jpg
EU Business School (Germany),EUBS4775,,,,Germany,,Munich,,,,http://www.euruni.edu/,,,,EU.jpg
EU Business School (Germany),EUBS4775,,,,Germany,,Munich,,,,http://www.euruni.edu/,,,,EU.jpg
EU Business School (Germany),EUBS4775,,,,Germany,,Munich,,,,http://www.euruni.edu/,,,,EU.jpg
EU Business School (Germany),EUBS4775,,,,Germany,,Munich,,,,http://www.euruni.edu/,,,,EU.jpg
EU Business School (Germany),EUBS4775,,,,Germany,,Munich,,,,http://www.euruni.edu/,,,,EU.jpg
EU Business School (Germany),EUBS4775,,,,Germany,,Munich,,,,http://www.euruni.edu/,,,,EU.jpg
EU Business School (Germany),EUBS4775,,,,Germany,,Munich,,,,http://www.euruni.edu/,,,,EU.jpg
EU Business School (Germany),EUBS4775,,,,Germany,,Munich,,,,http://www.euruni.edu/,,,,EU.jpg
EU Business School (Germany),EUBS4775,,,,Germany,,Munich,,,,http://www.euruni.edu/,,,,EU.jpg
EU Business School (Germany),EUBS4775,,,,Germany,,Munich,,,,http://www.euruni.edu/,,,,EU.jpg
EU Business School (Germany),EUBS4775,,,,Germany,,Munich,,,,http://www.euruni.edu/,,,,EU.jpg
EU Business School (Germany),EUBS4775,,,,Germany,,Munich,,,,http://www.euruni.edu/,,,,EU.jpg
EU Business School (Germany),EUBS4775,,,,Germany,,Munich,,,,http://www.euruni.edu/,,,,EU.jpg
EU Business School (Germany),EUBS4775,,,,Germany,,Munich,,,,http://www.euruni.edu/,,,,EU.jpg
EU Business School (Germany),EUBS4775,,,,Germany,,Munich,,,,http://www.euruni.edu/,,,,EU.jpg
EU Business School (Germany),EUBS4775,,,,Germany,,Munich,,,,http://www.euruni.edu/,,,,EU.jpg
EU Business School (Germany),EUBS4775,,,,Germany,,Munich,,,,http://www.euruni.edu/,,,,EU.jpg
EU Business School (Germany),EUBS4775,,,,Germany,,Munich,,,,http://www.euruni.edu/,,,,EU.jpg
EU Business School (Germany),EUBS4775,,,,Germany,,Munich,,,,http://www.euruni.edu/,,,,EU.jpg
EU Business School (Germany),EUBS4775,,,,Germany,,Munich,,,,http://www.euruni.edu/,,,,EU.jpg
EU Business School (Germany),EUBS4775,,,,Germany,,Munich,,,,http://www.euruni.edu/,,,,EU.jpg
EU Business School (Germany),EUBS4775,,,,Germany,,Munich,,,,http://www.euruni.edu/,,,,EU.jpg
EU Business School (Germany),EUBS4775,,,,Germany,,Munich,,,,http://www.euruni.edu/,,,,EU.jpg
EU Business School (Germany),EUBS4775,,,,Germany,,Munich,,,,http://www.euruni.edu/,,,,EU.jpg
EU Business School (Germany),EUBS4775,,,,Germany,,Munich,,,,http://www.euruni.edu/,,,,EU.jpg
EU Business School (Germany),EUBS4775,,,,Germany,,Munich,,,,http://www.euruni.edu/,,,,EU.jpg
EU Business School (Germany),EUBS4775,,,,Germany,,Munich,,,,http://www.euruni.edu/,,,,EU.jpg
EU Business School (Germany),EUBS4775,,,,Germany,,Munich,,,,http://www.euruni.edu/,,,,EU.jpg
EU Business School (Germany),EUBS4775,,,,Germany,,Munich,,,,http://www.euruni.edu/,,,,EU.jpg
EU Business School (Germany),EUBS4775,,,,Germany,,Munich,,,,http://www.euruni.edu/,,,,EU.jpg
EU Business School (Germany),EUBS4775,,,,Germany,,Munich,,,,http://www.euruni.edu/,,,,EU.jpg
EU Business School (Germany),EUBS4775,,,,Germany,,Munich,,,,http://www.euruni.edu/,,,,EU.jpg
EU Business School (Germany),EUBS4775,,,,Germany,,Munich,,,,http://www.euruni.edu/,,,,EU.jpg
EU Business School (Germany),EUBS4775,,,,Germany,,Munich,,,,http://www.euruni.edu/,,,,EU.jpg
EU Business School (Germany),EUBS4775,,,,Germany,,Munich,,,,http://www.euruni.edu/,,,,EU.jpg
EU Business School (Germany),EUBS4775,,,,Germany,,Munich,,,,http://www.euruni.edu/,,,,EU.jpg
EU Business School (Germany),EUBS4775,,,,Germany,,Munich,,,,http://www.euruni.edu/,,,,EU.jpg
EU Business School (Germany),EUBS4775,,,,Germany,,Munich,,,,http://www.euruni.edu/,,,,EU.jpg
EU Business School (Germany),EUBS4775,,,,Germany,,Munich,,,,http://www.euruni.edu/,,,,EU.jpg
EU Business School (Germany),EUBS4775,,,,Germany,,Munich,,,,http://www.euruni.edu/,,,,EU.jpg
EU Business School (Germany),EUBS4775,,,,Germany,,Munich,,,,http://www.euruni.edu/,,,,EU.jpg
EU Business School (Germany),EUBS4775,,,,Germany,,Munich,,,,http://www.euruni.edu/,,,,EU.jpg
EU Business School (Germany),EUBS4775,,,,Germany,,Munich,,,,http://www.euruni.edu/,,,,EU.jpg
EU Business School (Germany),EUBS4775,,,,Germany,,Munich,,,,http://www.euruni.edu/,,,,EU.jpg
EU Business School (Germany),EUBS4775,,,,Germany,,Munich,,,,http://www.euruni.edu/,,,,EU.jpg
EU Business School (Germany),EUBS4775,,,,Germany,,Munich,,,,http://www.euruni.edu/,,,,EU.jpg
EU Business School (Germany),EUBS4775,,,,Germany,,Munich,,,,http://www.euruni.edu/,,,,EU.jpg
EU Business School (Germany),EUBS4775,,,,Germany,,Munich,,,,http://www.euruni.edu/,,,,EU.jpg
EU Business School (Germany),EUBS4775,,,,Germany,,Munich,,,,http://www.euruni.edu/,,,,EU.jpg
EU Business School (Germany),EUBS4775,,,,Germany,,Munich,,,,http://www.euruni.edu/,,,,EU.jpg
EU Business School (Germany),EUBS4775,,,,Germany,,Munich,,,,http://www.euruni.edu/,,,,EU.jpg
EU Business School (Germany),EUBS4775,,,,Germany,,Munich,,,,http://www.euruni.edu/,,,,EU.jpg
EU Business School (Germany),EUBS4775,,,,Germany,,Munich,,,,http://www.euruni.edu/,,,,EU.jpg
EU Business School (Germany),EUBS4775,,,,Germany,,Munich,,,,http://www.euruni.edu/,,,,EU.jpg
EU Business School (Germany),EUBS4775,,,,Germany,,Munich,,,,http://www.euruni.edu/,,,,EU.jpg
EU Business School (Germany),EUBS4775,,,,Germany,,Munich,,,,http://www.euruni.edu/,,,,EU.jpg
EU Business School (Germany),EUBS4775,,,,Germany,,Munich,,,,http://www.euruni.edu/,,,,EU.jpg
EU Business School (Germany),EUBS4775,,,,Germany,,Munich,,,,http://www.euruni.edu/,,,,EU.jpg
EU Business School (Germany),EUBS4775,,,,Germany,,Munich,,,,http://www.euruni.edu/,,,,EU.jpg
EU Business School (Germany),EUBS4775,,,,Germany,,Munich,,,,http://www.euruni.edu/,,,,EU.jpg
EU Business School (Germany),EUBS4775,,,,Germany,,Munich,,,,http://www.euruni.edu/,,,,EU.jpg
EU Business School (Germany),EUBS4775,,,,Germany,,Munich,,,,http://www.euruni.edu/,,,,EU.jpg
German International College,GICE4775,,,,Germany,,Germany,,,,http://german-international-college.de/en/home/,,,,German.png
German International College,GICE4775,,,,Germany,,Germany,,,,http://german-international-college.de/en/home/,,,,German.png
German International College,GICE4775,,,,Germany,,Germany,,,,http://german-international-college.de/en/home/,,,,German.png
German International College,GICE4775,,,,Germany,,Germany,,,,http://german-international-college.de/en/home/,,,,German.png
German International College,GICE4775,,,,Germany,,Germany,,,,http://german-international-college.de/en/home/,,,,German.png
GISMA Business School Hochschule,GISMA4775,,,,Germany,,Hanover,,,,http://www.gisma.com/,,,,GISMA.jpg
GISMA Business School Hochschule,GISMA4775,,,,Germany,,Hanover,,,,http://www.gisma.com/,,,,GISMA.jpg
GISMA Business School Hochschule,GISMA4775,,,,Germany,,Hanover,,,,http://www.gisma.com/,,,,GISMA.jpg
GISMA Business School Hochschule,GISMA4775,,,,Germany,,Hanover,,,,http://www.gisma.com/,,,,GISMA.jpg
GISMA Business School Hochschule,GISMA4775,,,,Germany,,Hanover,,,,http://www.gisma.com/,,,,GISMA.jpg
GISMA Business School Hochschule,GISMA4775,,,,Germany,,Hanover,,,,http://www.gisma.com/,,,,GISMA.jpg
GISMA Business School Hochschule,GISMA4775,,,,Germany,,Hanover,,,,http://www.gisma.com/,,,,GISMA.jpg
GISMA Business School Hochschule,GISMA4775,,,,Germany,,Hanover,,,,http://www.gisma.com/,,,,GISMA.jpg
GISMA Business School Hochschule,GISMA4775,,,,Germany,,Hanover,,,,http://www.gisma.com/,,,,GISMA.jpg
GISMA Business School Hochschule,GISMA4775,,,,Germany,,Hanover,,,,http://www.gisma.com/,,,,GISMA.jpg
GISMA Business School Hochschule,GISMA4775,,,,Germany,,Hanover,,,,http://www.gisma.com/,,,,GISMA.jpg
GISMA Business School Hochschule,GISMA4775,,,,Germany,,Hanover,,,,http://www.gisma.com/,,,,GISMA.jpg
GISMA Business School Hochschule,GISMA4775,,,,Germany,,Hanover,,,,http://www.gisma.com/,,,,GISMA.jpg
GISMA Business School Hochschule,GISMA4775,,,,Germany,,Hanover,,,,http://www.gisma.com/,,,,GISMA.jpg
GISMA Business School Hochschule,GISMA4775,,,,Germany,,Hanover,,,,http://www.gisma.com/,,,,GISMA.jpg
GISMA Business School Hochschule,GISMA4775,,,,Germany,,Hanover,,,,http://www.gisma.com/,,,,GISMA.jpg
GISMA Business School Hochschule,GISMA4775,,,,Germany,,Hanover,,,,http://www.gisma.com/,,,,GISMA.jpg
GISMA Business School Hochschule,GISMA4775,,,,Germany,,Hanover,,,,http://www.gisma.com/,,,,GISMA.jpg
GISMA Business School Hochschule,GISMA4775,,,,Germany,,Hanover,,,,http://www.gisma.com/,,,,GISMA.jpg
GISMA Business School Hochschule,GISMA4775,,,,Germany,,Hanover,,,,http://www.gisma.com/,,,,GISMA.jpg
GISMA Business School Hochschule,GISMA4775,,,,Germany,,Hanover,,,,http://www.gisma.com/,,,,GISMA.jpg
GISMA Business School Hochschule,GISMA4775,,,,Germany,,Hanover,,,,http://www.gisma.com/,,,,GISMA.jpg
GISMA Business School Hochschule,GISMA4775,,,,Germany,,Hanover,,,,http://www.gisma.com/,,,,GISMA.jpg
GISMA Business School Hochschule,GISMA4775,,,,Germany,,Hanover,,,,http://www.gisma.com/,,,,GISMA.jpg
GISMA Business School Hochschule,GISMA4775,,,,Germany,,Hanover,,,,http://www.gisma.com/,,,,GISMA.jpg
GISMA Business School Hochschule,GISMA4775,,,,Germany,,Hanover,,,,http://www.gisma.com/,,,,GISMA.jpg
GISMA Business School Hochschule,GISMA4775,,,,Germany,,Hanover,,,,http://www.gisma.com/,,,,GISMA.jpg
GISMA Business School Hochschule,GISMA4775,,,,Germany,,Hanover,,,,http://www.gisma.com/,,,,GISMA.jpg
GISMA Business School Hochschule,GISMA4775,,,,Germany,,Hanover,,,,http://www.gisma.com/,,,,GISMA.jpg
GISMA Business School Hochschule,GISMA4775,,,,Germany,,Hanover,,,,http://www.gisma.com/,,,,GISMA.jpg
GISMA Business School Hochschule,GISMA4775,,,,Germany,,Hanover,,,,http://www.gisma.com/,,,,GISMA.jpg
GISMA Business School Hochschule,GISMA4775,,,,Germany,,Hanover,,,,http://www.gisma.com/,,,,GISMA.jpg
GISMA Business School Hochschule,GISMA4775,,,,Germany,,Hanover,,,,http://www.gisma.com/,,,,GISMA.jpg
GISMA Business School Hochschule,GISMA4775,,,,Germany,,Hanover,,,,http://www.gisma.com/,,,,GISMA.jpg
GISMA Business School Hochschule,GISMA4775,,,,Germany,,Hanover,,,,http://www.gisma.com/,,,,GISMA.jpg
GISMA Business School Hochschule,GISMA4775,,,,Germany,,Hanover,,,,http://www.gisma.com/,,,,GISMA.jpg
GISMA Business School Hochschule,GISMA4775,,,,Germany,,Hanover,,,,http://www.gisma.com/,,,,GISMA.jpg
GISMA Business School Hochschule,GISMA4775,,,,Germany,,Hanover,,,,http://www.gisma.com/,,,,GISMA.jpg
GISMA Business School Hochschule,GISMA4775,,,,Germany,,Hanover,,,,http://www.gisma.com/,,,,GISMA.jpg
GISMA Business School Hochschule,GISMA4775,,,,Germany,,Hanover,,,,http://www.gisma.com/,,,,GISMA.jpg
GISMA Business School Hochschule,GISMA4775,,,,Germany,,Hanover,,,,http://www.gisma.com/,,,,GISMA.jpg
Hochschule Bremen - International Graduate School,HBIGC4775,,,,Germany,,Bremen,,,,http://www.hs-bremen.de/,,,,Hochschule.jpg
Hochschule Bremen - International Graduate School,HBIGC4775,,,,Germany,,Bremen,,,,http://www.hs-bremen.de/,,,,Hochschule.jpg
Hochschule Bremen - International Graduate School,HBIGC4775,,,,Germany,,Bremen,,,,http://www.hs-bremen.de/,,,,Hochschule.jpg
Hochschule Bremen - International Graduate School,HBIGC4775,,,,Germany,,Bremen,,,,http://www.hs-bremen.de/,,,,Hochschule.jpg
Hochschule Bremen - International Graduate School,HBIGC4775,,,,Germany,,Bremen,,,,http://www.hs-bremen.de/,,,,Hochschule.jpg
Hochschule Bremen - International Graduate School,HBIGC4775,,,,Germany,,Bremen,,,,http://www.hs-bremen.de/,,,,Hochschule.jpg
Hochschule Bremen - International Graduate School,HBIGC4775,,,,Germany,,Bremen,,,,http://www.hs-bremen.de/,,,,Hochschule.jpg
Hochschule Bremen - International Graduate School,HBIGC4775,,,,Germany,,Bremen,,,,http://www.hs-bremen.de/,,,,Hochschule.jpg
Hochschule Bremen - International Graduate School,HBIGC4775,,,,Germany,,Bremen,,,,http://www.hs-bremen.de/,,,,Hochschule.jpg
Hochschule Bremen - International Graduate School,HBIGC4775,,,,Germany,,Bremen,,,,http://www.hs-bremen.de/,,,,Hochschule.jpg
Hochschule Bremen - International Graduate School,HBIGC4775,,,,Germany,,Bremen,,,,http://www.hs-bremen.de/,,,,Hochschule.jpg
Hochschule Bremen - International Graduate School,HBIGC4775,,,,Germany,,Bremen,,,,http://www.hs-bremen.de/,,,,Hochschule.jpg
Hochschule Bremen - International Graduate School,HBIGC4775,,,,Germany,,Bremen,,,,http://www.hs-bremen.de/,,,,Hochschule.jpg
Hochschule Bremen - International Graduate School,HBIGC4775,,,,Germany,,Bremen,,,,http://www.hs-bremen.de/,,,,Hochschule.jpg
Hochschule Bremen - International Graduate School,HBIGC4775,,,,Germany,,Bremen,,,,http://www.hs-bremen.de/,,,,Hochschule.jpg
Hochschule Bremen - International Graduate School,HBIGC4775,,,,Germany,,Bremen,,,,http://www.hs-bremen.de/,,,,Hochschule.jpg
Hochschule Bremen - International Graduate School,HBIGC4775,,,,Germany,,Bremen,,,,http://www.hs-bremen.de/,,,,Hochschule.jpg
Hochschule Bremen - International Graduate School,HBIGC4775,,,,Germany,,Bremen,,,,http://www.hs-bremen.de/,,,,Hochschule.jpg
Hochschule Bremen - International Graduate School,HBIGC4775,,,,Germany,,Bremen,,,,http://www.hs-bremen.de/,,,,Hochschule.jpg
Hochschule Bremen - International Graduate School,HBIGC4775,,,,Germany,,Bremen,,,,http://www.hs-bremen.de/,,,,Hochschule.jpg
Hochschule Bremen - International Graduate School,HBIGC4775,,,,Germany,,Bremen,,,,http://www.hs-bremen.de/,,,,Hochschule.jpg
Hochschule Bremen - International Graduate School,HBIGC4775,,,,Germany,,Bremen,,,,http://www.hs-bremen.de/,,,,Hochschule.jpg
Hochschule Bremen - International Graduate School,HBIGC4775,,,,Germany,,Bremen,,,,http://www.hs-bremen.de/,,,,Hochschule.jpg
Hochschule Bremen - International Graduate School,HBIGC4775,,,,Germany,,Bremen,,,,http://www.hs-bremen.de/,,,,Hochschule.jpg
Hochschule Bremen - International Graduate School,HBIGC4775,,,,Germany,,Bremen,,,,http://www.hs-bremen.de/,,,,Hochschule.jpg
Hochschule Bremen - International Graduate School,HBIGC4775,,,,Germany,,Bremen,,,,http://www.hs-bremen.de/,,,,Hochschule.jpg
Hochschule Bremen - International Graduate School,HBIGC4775,,,,Germany,,Bremen,,,,http://www.hs-bremen.de/,,,,Hochschule.jpg
Hochschule Bremen - International Graduate School,HBIGC4775,,,,Germany,,Bremen,,,,http://www.hs-bremen.de/,,,,Hochschule.jpg
Hochschule Bremen - International Graduate School,HBIGC4775,,,,Germany,,Bremen,,,,http://www.hs-bremen.de/,,,,Hochschule.jpg
Hochschule Bremen - International Graduate School,HBIGC4775,,,,Germany,,Bremen,,,,http://www.hs-bremen.de/,,,,Hochschule.jpg
Hochschule Bremen - International Graduate School,HBIGC4775,,,,Germany,,Bremen,,,,http://www.hs-bremen.de/,,,,Hochschule.jpg
Hochschule Bremen - International Graduate School,HBIGC4775,,,,Germany,,Bremen,,,,http://www.hs-bremen.de/,,,,Hochschule.jpg
International School of Management,ISOM4775,,,,Germany,,Dortmund,,,,http://www.ism.de/,,,,International.jpg
International School of Management,ISOM4775,,,,Germany,,Dortmund,,,,http://www.ism.de/,,,,International.jpg
International School of Management,ISOM4775,,,,Germany,,Dortmund,,,,http://www.ism.de/,,,,International.jpg
International School of Management,ISOM4775,,,,Germany,,Dortmund,,,,http://www.ism.de/,,,,International.jpg
International School of Management,ISOM4775,,,,Germany,,Dortmund,,,,http://www.ism.de/,,,,International.jpg
International School of Management,ISOM4775,,,,Germany,,Dortmund,,,,http://www.ism.de/,,,,International.jpg
International School of Management,ISOM4775,,,,Germany,,Dortmund,,,,http://www.ism.de/,,,,International.jpg
International School of Management,ISOM4775,,,,Germany,,Dortmund,,,,http://www.ism.de/,,,,International.jpg
International School of Management,ISOM4775,,,,Germany,,Dortmund,,,,http://www.ism.de/,,,,International.jpg
International School of Management,ISOM4775,,,,Germany,,Dortmund,,,,http://www.ism.de/,,,,International.jpg
International School of Management,ISOM4775,,,,Germany,,Dortmund,,,,http://www.ism.de/,,,,International.jpg
International School of Management,ISOM4775,,,,Germany,,Dortmund,,,,http://www.ism.de/,,,,International.jpg
International School of Management,ISOM4775,,,,Germany,,Dortmund,,,,http://www.ism.de/,,,,International.jpg
International School of Management,ISOM4775,,,,Germany,,Dortmund,,,,http://www.ism.de/,,,,International.jpg
International School of Management,ISOM4775,,,,Germany,,Dortmund,,,,http://www.ism.de/,,,,International.jpg
International School of Management,ISOM4775,,,,Germany,,Dortmund,,,,http://www.ism.de/,,,,International.jpg
International School of Management,ISOM4775,,,,Germany,,Dortmund,,,,http://www.ism.de/,,,,International.jpg
International School of Management,ISOM4775,,,,Germany,,Dortmund,,,,http://www.ism.de/,,,,International.jpg
International School of Management,ISOM4775,,,,Germany,,Dortmund,,,,http://www.ism.de/,,,,International.jpg
International School of Management,ISOM4775,,,,Germany,,Dortmund,,,,http://www.ism.de/,,,,International.jpg
International School of Management,ISOM4775,,,,Germany,,Dortmund,,,,http://www.ism.de/,,,,International.jpg
International School of Management,ISOM4775,,,,Germany,,Dortmund,,,,http://www.ism.de/,,,,International.jpg
International School of Management,ISOM4775,,,,Germany,,Dortmund,,,,http://www.ism.de/,,,,International.jpg
International School of Management,ISOM4775,,,,Germany,,Dortmund,,,,http://www.ism.de/,,,,International.jpg
International School of Management,ISOM4775,,,,Germany,,Dortmund,,,,http://www.ism.de/,,,,International.jpg
International School of Management,ISOM4775,,,,Germany,,Dortmund,,,,http://www.ism.de/,,,,International.jpg
International School of Management,ISOM4775,,,,Germany,,Dortmund,,,,http://www.ism.de/,,,,International.jpg
International School of Management,ISOM4775,,,,Germany,,Dortmund,,,,http://www.ism.de/,,,,International.jpg
International School of Management,ISOM4775,,,,Germany,,Dortmund,,,,http://www.ism.de/,,,,International.jpg
International School of Management,ISOM4775,,,,Germany,,Dortmund,,,,http://www.ism.de/,,,,International.jpg
International School of Management,ISOM4775,,,,Germany,,Dortmund,,,,http://www.ism.de/,,,,International.jpg
International School of Management,ISOM4775,,,,Germany,,Dortmund,,,,http://www.ism.de/,,,,International.jpg
International School of Management,ISOM4775,,,,Germany,,Dortmund,,,,http://www.ism.de/,,,,International.jpg
International School of Management,ISOM4775,,,,Germany,,Dortmund,,,,http://www.ism.de/,,,,International.jpg
International School of Management,ISOM4775,,,,Germany,,Dortmund,,,,http://www.ism.de/,,,,International.jpg
International School of Management,ISOM4775,,,,Germany,,Dortmund,,,,http://www.ism.de/,,,,International.jpg
International School of Management,ISOM4775,,,,Germany,,Dortmund,,,,http://www.ism.de/,,,,International.jpg
International School of Management,ISOM4775,,,,Germany,,Dortmund,,,,http://www.ism.de/,,,,International.jpg
International School of Management,ISOM4775,,,,Germany,,Dortmund,,,,http://www.ism.de/,,,,International.jpg
International School of Management,ISOM4775,,,,Germany,,Dortmund,,,,http://www.ism.de/,,,,International.jpg
International School of Management,ISOM4775,,,,Germany,,Dortmund,,,,http://www.ism.de/,,,,International.jpg
International School of Management,ISOM4775,,,,Germany,,Dortmund,,,,http://www.ism.de/,,,,International.jpg
International School of Management,ISOM4775,,,,Germany,,Dortmund,,,,http://www.ism.de/,,,,International.jpg
International School of Management,ISOM4775,,,,Germany,,Dortmund,,,,http://www.ism.de/,,,,International.jpg
International School of Management,ISOM4775,,,,Germany,,Dortmund,,,,http://www.ism.de/,,,,International.jpg
International School of Management,ISOM4775,,,,Germany,,Dortmund,,,,http://www.ism.de/,,,,International.jpg
International School of Management,ISOM4775,,,,Germany,,Dortmund,,,,http://www.ism.de/,,,,International.jpg
International School of Management,ISOM4775,,,,Germany,,Dortmund,,,,http://www.ism.de/,,,,International.jpg
International School of Management,ISOM4775,,,,Germany,,Dortmund,,,,http://www.ism.de/,,,,International.jpg
International School of Management,ISOM4775,,,,Germany,,Dortmund,,,,http://www.ism.de/,,,,International.jpg
International School of Management,ISOM4775,,,,Germany,,Dortmund,,,,http://www.ism.de/,,,,International.jpg
International School of Management,ISOM4775,,,,Germany,,Dortmund,,,,http://www.ism.de/,,,,International.jpg
International School of Management,ISOM4775,,,,Germany,,Dortmund,,,,http://www.ism.de/,,,,International.jpg
International School of Management,ISOM4775,,,,Germany,,Dortmund,,,,http://www.ism.de/,,,,International.jpg
International School of Management,ISOM4775,,,,Germany,,Dortmund,,,,http://www.ism.de/,,,,International.jpg
International School of Management,ISOM4775,,,,Germany,,Dortmund,,,,http://www.ism.de/,,,,International.jpg
International School of Management,ISOM4775,,,,Germany,,Dortmund,,,,http://www.ism.de/,,,,International.jpg
International School of Management,ISOM4775,,,,Germany,,Dortmund,,,,http://www.ism.de/,,,,International.jpg
International School of Management,ISOM4775,,,,Germany,,Dortmund,,,,http://www.ism.de/,,,,International.jpg
International School of Management,ISOM4775,,,,Germany,,Dortmund,,,,http://www.ism.de/,,,,International.jpg
International School of Management,ISOM4775,,,,Germany,,Dortmund,,,,http://www.ism.de/,,,,International.jpg
International School of Management,ISOM4775,,,,Germany,,Dortmund,,,,http://www.ism.de/,,,,International.jpg
International School of Management,ISOM4775,,,,Germany,,Dortmund,,,,http://www.ism.de/,,,,International.jpg
International School of Management,ISOM4775,,,,Germany,,Dortmund,,,,http://www.ism.de/,,,,International.jpg
International School of Management,ISOM4775,,,,Germany,,Dortmund,,,,http://www.ism.de/,,,,International.jpg
International School of Management,ISOM4775,,,,Germany,,Dortmund,,,,http://www.ism.de/,,,,International.jpg
International School of Management,ISOM4775,,,,Germany,,Dortmund,,,,http://www.ism.de/,,,,International.jpg
International School of Management,ISOM4775,,,,Germany,,Dortmund,,,,http://www.ism.de/,,,,International.jpg
International School of Management,ISOM4775,,,,Germany,,Dortmund,,,,http://www.ism.de/,,,,International.jpg
International School of Management,ISOM4775,,,,Germany,,Dortmund,,,,http://www.ism.de/,,,,International.jpg
International School of Management,ISOM4775,,,,Germany,,Dortmund,,,,http://www.ism.de/,,,,International.jpg
International School of Management,ISOM4775,,,,Germany,,Dortmund,,,,http://www.ism.de/,,,,International.jpg
International University of Applied Sciences듈U ,IUAS4775,,,,Germany,,Bad Honnef,,,,http://www.iubh.de/,,,,InternationalUniversity.jpg
International University of Applied Sciences듈U ,IUAS4775,,,,Germany,,Bad Honnef,,,,http://www.iubh.de/,,,,InternationalUniversity.jpg
International University of Applied Sciences듈U ,IUAS4775,,,,Germany,,Bad Honnef,,,,http://www.iubh.de/,,,,InternationalUniversity.jpg
International University of Applied Sciences듈U ,IUAS4775,,,,Germany,,Bad Honnef,,,,http://www.iubh.de/,,,,InternationalUniversity.jpg
International University of Applied Sciences듈U ,IUAS4775,,,,Germany,,Bad Honnef,,,,http://www.iubh.de/,,,,InternationalUniversity.jpg
International University of Applied Sciences듈U ,IUAS4775,,,,Germany,,Bad Honnef,,,,http://www.iubh.de/,,,,InternationalUniversity.jpg
International University of Applied Sciences듈U ,IUAS4775,,,,Germany,,Bad Honnef,,,,http://www.iubh.de/,,,,InternationalUniversity.jpg
International University of Applied Sciences듈U ,IUAS4775,,,,Germany,,Bad Honnef,,,,http://www.iubh.de/,,,,InternationalUniversity.jpg
International University of Applied Sciences듈U ,IUAS4775,,,,Germany,,Bad Honnef,,,,http://www.iubh.de/,,,,InternationalUniversity.jpg
International University of Applied Sciences듈U ,IUAS4775,,,,Germany,,Bad Honnef,,,,http://www.iubh.de/,,,,InternationalUniversity.jpg
International University of Applied Sciences듈U ,IUAS4775,,,,Germany,,Bad Honnef,,,,http://www.iubh.de/,,,,InternationalUniversity.jpg
International University of Applied Sciences듈U ,IUAS4775,,,,Germany,,Bad Honnef,,,,http://www.iubh.de/,,,,InternationalUniversity.jpg
International University of Applied Sciences듈U ,IUAS4775,,,,Germany,,Bad Honnef,,,,http://www.iubh.de/,,,,InternationalUniversity.jpg
International University of Applied Sciences듈U ,IUAS4775,,,,Germany,,Bad Honnef,,,,http://www.iubh.de/,,,,InternationalUniversity.jpg
International University of Applied Sciences듈U ,IUAS4775,,,,Germany,,Bad Honnef,,,,http://www.iubh.de/,,,,InternationalUniversity.jpg
International University of Applied Sciences듈U ,IUAS4775,,,,Germany,,Bad Honnef,,,,http://www.iubh.de/,,,,InternationalUniversity.jpg
International University of Applied Sciences듈U ,IUAS4775,,,,Germany,,Bad Honnef,,,,http://www.iubh.de/,,,,InternationalUniversity.jpg
International University of Applied Sciences듈U ,IUAS4775,,,,Germany,,Bad Honnef,,,,http://www.iubh.de/,,,,InternationalUniversity.jpg
International University of Applied Sciences듈U ,IUAS4775,,,,Germany,,Bad Honnef,,,,http://www.iubh.de/,,,,InternationalUniversity.jpg
International University of Applied Sciences듈U ,IUAS4775,,,,Germany,,Bad Honnef,,,,http://www.iubh.de/,,,,InternationalUniversity.jpg
International University of Applied Sciences듈U ,IUAS4775,,,,Germany,,Bad Honnef,,,,http://www.iubh.de/,,,,InternationalUniversity.jpg
International University of Applied Sciences듈U ,IUAS4775,,,,Germany,,Bad Honnef,,,,http://www.iubh.de/,,,,InternationalUniversity.jpg
International University of Applied Sciences듈U ,IUAS4775,,,,Germany,,Bad Honnef,,,,http://www.iubh.de/,,,,InternationalUniversity.jpg
International University of Applied Sciences듈U ,IUAS4775,,,,Germany,,Bad Honnef,,,,http://www.iubh.de/,,,,InternationalUniversity.jpg
International University of Applied Sciences듈U ,IUAS4775,,,,Germany,,Bad Honnef,,,,http://www.iubh.de/,,,,InternationalUniversity.jpg
International University of Applied Sciences듈U ,IUAS4775,,,,Germany,,Bad Honnef,,,,http://www.iubh.de/,,,,InternationalUniversity.jpg
International University of Applied Sciences듈U ,IUAS4775,,,,Germany,,Bad Honnef,,,,http://www.iubh.de/,,,,InternationalUniversity.jpg
International University of Applied Sciences듈U ,IUAS4775,,,,Germany,,Bad Honnef,,,,http://www.iubh.de/,,,,InternationalUniversity.jpg
International University of Applied Sciences듈U ,IUAS4775,,,,Germany,,Bad Honnef,,,,http://www.iubh.de/,,,,InternationalUniversity.jpg
International University of Applied Sciences듈U ,IUAS4775,,,,Germany,,Bad Honnef,,,,http://www.iubh.de/,,,,InternationalUniversity.jpg
International University of Applied Sciences듈U ,IUAS4775,,,,Germany,,Bad Honnef,,,,http://www.iubh.de/,,,,InternationalUniversity.jpg
International University of Applied Sciences듈U ,IUAS4775,,,,Germany,,Bad Honnef,,,,http://www.iubh.de/,,,,InternationalUniversity.jpg
International University of Applied Sciences듈U ,IUAS4775,,,,Germany,,Bad Honnef,,,,http://www.iubh.de/,,,,InternationalUniversity.jpg
International University of Applied Sciences듈U ,IUAS4775,,,,Germany,,Bad Honnef,,,,http://www.iubh.de/,,,,InternationalUniversity.jpg
International University of Applied Sciences듈U ,IUAS4775,,,,Germany,,Bad Honnef,,,,http://www.iubh.de/,,,,InternationalUniversity.jpg
International University of Applied Sciences듈U ,IUAS4775,,,,Germany,,Bad Honnef,,,,http://www.iubh.de/,,,,InternationalUniversity.jpg
International University of Applied Sciences듈U ,IUAS4775,,,,Germany,,Bad Honnef,,,,http://www.iubh.de/,,,,InternationalUniversity.jpg
International University of Applied Sciences듈U ,IUAS4775,,,,Germany,,Bad Honnef,,,,http://www.iubh.de/,,,,InternationalUniversity.jpg
International University of Applied Sciences듈U ,IUAS4775,,,,Germany,,Bad Honnef,,,,http://www.iubh.de/,,,,InternationalUniversity.jpg
International University of Applied Sciences듈U ,IUAS4775,,,,Germany,,Bad Honnef,,,,http://www.iubh.de/,,,,InternationalUniversity.jpg
International University of Applied Sciences듈U ,IUAS4775,,,,Germany,,Bad Honnef,,,,http://www.iubh.de/,,,,InternationalUniversity.jpg
International University of Applied Sciences듈U ,IUAS4775,,,,Germany,,Bad Honnef,,,,http://www.iubh.de/,,,,InternationalUniversity.jpg
International University of Applied Sciences듈U ,IUAS4775,,,,Germany,,Bad Honnef,,,,http://www.iubh.de/,,,,InternationalUniversity.jpg
International University of Applied Sciences듈U ,IUAS4775,,,,Germany,,Bad Honnef,,,,http://www.iubh.de/,,,,InternationalUniversity.jpg
International University of Applied Sciences듈U ,IUAS4775,,,,Germany,,Bad Honnef,,,,http://www.iubh.de/,,,,InternationalUniversity.jpg
International University of Applied Sciences듈U ,IUAS4775,,,,Germany,,Bad Honnef,,,,http://www.iubh.de/,,,,InternationalUniversity.jpg
International University of Applied Sciences듈U ,IUAS4775,,,,Germany,,Bad Honnef,,,,http://www.iubh.de/,,,,InternationalUniversity.jpg
International University of Applied Sciences듈U ,IUAS4775,,,,Germany,,Bad Honnef,,,,http://www.iubh.de/,,,,InternationalUniversity.jpg
International University of Applied Sciences듈U ,IUAS4775,,,,Germany,,Bad Honnef,,,,http://www.iubh.de/,,,,InternationalUniversity.jpg
International University of Applied Sciences듈U ,IUAS4775,,,,Germany,,Bad Honnef,,,,http://www.iubh.de/,,,,InternationalUniversity.jpg
International University of Applied Sciences듈U ,IUAS4775,,,,Germany,,Bad Honnef,,,,http://www.iubh.de/,,,,InternationalUniversity.jpg
International University of Applied Sciences듈U ,IUAS4775,,,,Germany,,Bad Honnef,,,,http://www.iubh.de/,,,,InternationalUniversity.jpg
International University of Applied Sciences듈U ,IUAS4775,,,,Germany,,Bad Honnef,,,,http://www.iubh.de/,,,,InternationalUniversity.jpg
International University of Applied Sciences듈U ,IUAS4775,,,,Germany,,Bad Honnef,,,,http://www.iubh.de/,,,,InternationalUniversity.jpg
International University of Applied Sciences듈U ,IUAS4775,,,,Germany,,Bad Honnef,,,,http://www.iubh.de/,,,,InternationalUniversity.jpg
International University of Applied Sciences듈U ,IUAS4775,,,,Germany,,Bad Honnef,,,,http://www.iubh.de/,,,,InternationalUniversity.jpg
International University of Applied Sciences듈U ,IUAS4775,,,,Germany,,Bad Honnef,,,,http://www.iubh.de/,,,,InternationalUniversity.jpg
International University of Applied Sciences듈U ,IUAS4775,,,,Germany,,Bad Honnef,,,,http://www.iubh.de/,,,,InternationalUniversity.jpg
International University of Applied Sciences듈U ,IUAS4775,,,,Germany,,Bad Honnef,,,,http://www.iubh.de/,,,,InternationalUniversity.jpg
International University of Applied Sciences듈U ,IUAS4775,,,,Germany,,Bad Honnef,,,,http://www.iubh.de/,,,,InternationalUniversity.jpg
International University of Applied Sciences듈U ,IUAS4775,,,,Germany,,Bad Honnef,,,,http://www.iubh.de/,,,,InternationalUniversity.jpg
International University of Applied Sciences듈U ,IUAS4775,,,,Germany,,Bad Honnef,,,,http://www.iubh.de/,,,,InternationalUniversity.jpg
International University of Applied Sciences듈U ,IUAS4775,,,,Germany,,Bad Honnef,,,,http://www.iubh.de/,,,,InternationalUniversity.jpg
International University of Applied Sciences듈U ,IUAS4775,,,,Germany,,Bad Honnef,,,,http://www.iubh.de/,,,,InternationalUniversity.jpg
International University of Applied Sciences듈U ,IUAS4775,,,,Germany,,Bad Honnef,,,,http://www.iubh.de/,,,,InternationalUniversity.jpg
International University of Applied Sciences듈U ,IUAS4775,,,,Germany,,Bad Honnef,,,,http://www.iubh.de/,,,,InternationalUniversity.jpg
International University of Applied Sciences듈U ,IUAS4775,,,,Germany,,Bad Honnef,,,,http://www.iubh.de/,,,,InternationalUniversity.jpg
International University of Applied Sciences듈U ,IUAS4775,,,,Germany,,Bad Honnef,,,,http://www.iubh.de/,,,,InternationalUniversity.jpg
International University of Applied Sciences듈U ,IUAS4775,,,,Germany,,Bad Honnef,,,,http://www.iubh.de/,,,,InternationalUniversity.jpg
Jacobs University Bremen,JUBN4775,,,,Germany,,Bremen,,,,https://www.jacobs-university.de/,,,,Jacobs.png
Jacobs University Bremen,JUBN4775,,,,Germany,,Bremen,,,,https://www.jacobs-university.de/,,,,Jacobs.png
Jacobs University Bremen,JUBN4775,,,,Germany,,Bremen,,,,https://www.jacobs-university.de/,,,,Jacobs.png
Jacobs University Bremen,JUBN4775,,,,Germany,,Bremen,,,,https://www.jacobs-university.de/,,,,Jacobs.png
Jacobs University Bremen,JUBN4775,,,,Germany,,Bremen,,,,https://www.jacobs-university.de/,,,,Jacobs.png
Jacobs University Bremen,JUBN4775,,,,Germany,,Bremen,,,,https://www.jacobs-university.de/,,,,Jacobs.png
Jacobs University Bremen,JUBN4775,,,,Germany,,Bremen,,,,https://www.jacobs-university.de/,,,,Jacobs.png
Jacobs University Bremen,JUBN4775,,,,Germany,,Bremen,,,,https://www.jacobs-university.de/,,,,Jacobs.png
Jacobs University Bremen,JUBN4775,,,,Germany,,Bremen,,,,https://www.jacobs-university.de/,,,,Jacobs.png
Jacobs University Bremen,JUBN4775,,,,Germany,,Bremen,,,,https://www.jacobs-university.de/,,,,Jacobs.png
Jacobs University Bremen,JUBN4775,,,,Germany,,Bremen,,,,https://www.jacobs-university.de/,,,,Jacobs.png
Jacobs University Bremen,JUBN4775,,,,Germany,,Bremen,,,,https://www.jacobs-university.de/,,,,Jacobs.png
Jacobs University Bremen,JUBN4775,,,,Germany,,Bremen,,,,https://www.jacobs-university.de/,,,,Jacobs.png
Jacobs University Bremen,JUBN4775,,,,Germany,,Bremen,,,,https://www.jacobs-university.de/,,,,Jacobs.png
Jacobs University Bremen,JUBN4775,,,,Germany,,Bremen,,,,https://www.jacobs-university.de/,,,,Jacobs.png
Jacobs University Bremen,JUBN4775,,,,Germany,,Bremen,,,,https://www.jacobs-university.de/,,,,Jacobs.png
Jacobs University Bremen,JUBN4775,,,,Germany,,Bremen,,,,https://www.jacobs-university.de/,,,,Jacobs.png
Jacobs University Bremen,JUBN4775,,,,Germany,,Bremen,,,,https://www.jacobs-university.de/,,,,Jacobs.png
Jacobs University Bremen,JUBN4775,,,,Germany,,Bremen,,,,https://www.jacobs-university.de/,,,,Jacobs.png
Jacobs University Bremen,JUBN4775,,,,Germany,,Bremen,,,,https://www.jacobs-university.de/,,,,Jacobs.png
Jacobs University Bremen,JUBN4775,,,,Germany,,Bremen,,,,https://www.jacobs-university.de/,,,,Jacobs.png
Jacobs University Bremen,JUBN4775,,,,Germany,,Bremen,,,,https://www.jacobs-university.de/,,,,Jacobs.png
Jacobs University Bremen,JUBN4775,,,,Germany,,Bremen,,,,https://www.jacobs-university.de/,,,,Jacobs.png
Jacobs University Bremen,JUBN4775,,,,Germany,,Bremen,,,,https://www.jacobs-university.de/,,,,Jacobs.png
Jacobs University Bremen,JUBN4775,,,,Germany,,Bremen,,,,https://www.jacobs-university.de/,,,,Jacobs.png
Jacobs University Bremen,JUBN4775,,,,Germany,,Bremen,,,,https://www.jacobs-university.de/,,,,Jacobs.png
Jacobs University Bremen,JUBN4775,,,,Germany,,Bremen,,,,https://www.jacobs-university.de/,,,,Jacobs.png
Jacobs University Bremen,JUBN4775,,,,Germany,,Bremen,,,,https://www.jacobs-university.de/,,,,Jacobs.png
Jacobs University Bremen,JUBN4775,,,,Germany,,Bremen,,,,https://www.jacobs-university.de/,,,,Jacobs.png
Jacobs University Bremen,JUBN4775,,,,Germany,,Bremen,,,,https://www.jacobs-university.de/,,,,Jacobs.png
Jacobs University Bremen,JUBN4775,,,,Germany,,Bremen,,,,https://www.jacobs-university.de/,,,,Jacobs.png
Jacobs University Bremen,JUBN4775,,,,Germany,,Bremen,,,,https://www.jacobs-university.de/,,,,Jacobs.png
Jacobs University Bremen,JUBN4775,,,,Germany,,Bremen,,,,https://www.jacobs-university.de/,,,,Jacobs.png
Jacobs University Bremen,JUBN4775,,,,Germany,,Bremen,,,,https://www.jacobs-university.de/,,,,Jacobs.png
Jacobs University Bremen,JUBN4775,,,,Germany,,Bremen,,,,https://www.jacobs-university.de/,,,,Jacobs.png
Jacobs University Bremen,JUBN4775,,,,Germany,,Bremen,,,,https://www.jacobs-university.de/,,,,Jacobs.png
Jacobs University Bremen,JUBN4775,,,,Germany,,Bremen,,,,https://www.jacobs-university.de/,,,,Jacobs.png
Jacobs University Bremen,JUBN4775,,,,Germany,,Bremen,,,,https://www.jacobs-university.de/,,,,Jacobs.png
Jacobs University Bremen,JUBN4775,,,,Germany,,Bremen,,,,https://www.jacobs-university.de/,,,,Jacobs.png
Jacobs University Bremen,JUBN4775,,,,Germany,,Bremen,,,,https://www.jacobs-university.de/,,,,Jacobs.png
Jacobs University Bremen,JUBN4775,,,,Germany,,Bremen,,,,https://www.jacobs-university.de/,,,,Jacobs.png
Jacobs University Bremen,JUBN4775,,,,Germany,,Bremen,,,,https://www.jacobs-university.de/,,,,Jacobs.png
Jacobs University Bremen,JUBN4775,,,,Germany,,Bremen,,,,https://www.jacobs-university.de/,,,,Jacobs.png
Jacobs University Bremen,JUBN4775,,,,Germany,,Bremen,,,,https://www.jacobs-university.de/,,,,Jacobs.png
Jacobs University Bremen,JUBN4775,,,,Germany,,Bremen,,,,https://www.jacobs-university.de/,,,,Jacobs.png
Jacobs University Bremen,JUBN4775,,,,Germany,,Bremen,,,,https://www.jacobs-university.de/,,,,Jacobs.png
Jacobs University Bremen,JUBN4775,,,,Germany,,Bremen,,,,https://www.jacobs-university.de/,,,,Jacobs.png
Jacobs University Bremen,JUBN4775,,,,Germany,,Bremen,,,,https://www.jacobs-university.de/,,,,Jacobs.png
Jacobs University Bremen,JUBN4775,,,,Germany,,Bremen,,,,https://www.jacobs-university.de/,,,,Jacobs.png
Jacobs University Bremen,JUBN4775,,,,Germany,,Bremen,,,,https://www.jacobs-university.de/,,,,Jacobs.png
Jacobs University Bremen,JUBN4775,,,,Germany,,Bremen,,,,https://www.jacobs-university.de/,,,,Jacobs.png
Jacobs University Bremen,JUBN4775,,,,Germany,,Bremen,,,,https://www.jacobs-university.de/,,,,Jacobs.png
Jacobs University Bremen,JUBN4775,,,,Germany,,Bremen,,,,https://www.jacobs-university.de/,,,,Jacobs.png
Jacobs University Bremen,JUBN4775,,,,Germany,,Bremen,,,,https://www.jacobs-university.de/,,,,Jacobs.png
Jacobs University Bremen,JUBN4775,,,,Germany,,Bremen,,,,https://www.jacobs-university.de/,,,,Jacobs.png
Lancaster University,LAUY4775,,,,Germany,,Leipzig,,,,http://www.lancasteruniversityleipzig.com/,,,,Lancaster.jpg
Lancaster University,LAUY4775,,,,Germany,,Leipzig,,,,http://www.lancasteruniversityleipzig.com/,,,,Lancaster.jpg
Lancaster University,LAUY4775,,,,Germany,,Leipzig,,,,http://www.lancasteruniversityleipzig.com/,,,,Lancaster.jpg
Lancaster University,LAUY4775,,,,Germany,,Leipzig,,,,http://www.lancasteruniversityleipzig.com/,,,,Lancaster.jpg
Lancaster University,LAUY4775,,,,Germany,,Leipzig,,,,http://www.lancasteruniversityleipzig.com/,,,,Lancaster.jpg
Lancaster University,LAUY4775,,,,Germany,,Leipzig,,,,http://www.lancasteruniversityleipzig.com/,,,,Lancaster.jpg
Lancaster University,LAUY4775,,,,Germany,,Leipzig,,,,http://www.lancasteruniversityleipzig.com/,,,,Lancaster.jpg
Lancaster University,LAUY4775,,,,Germany,,Leipzig,,,,http://www.lancasteruniversityleipzig.com/,,,,Lancaster.jpg
Lancaster University,LAUY4775,,,,Germany,,Leipzig,,,,http://www.lancasteruniversityleipzig.com/,,,,Lancaster.jpg
Lancaster University,LAUY4775,,,,Germany,,Leipzig,,,,http://www.lancasteruniversityleipzig.com/,,,,Lancaster.jpg
Lancaster University,LAUY4775,,,,Germany,,Leipzig,,,,http://www.lancasteruniversityleipzig.com/,,,,Lancaster.jpg
Lancaster University,LAUY4775,,,,Germany,,Leipzig,,,,http://www.lancasteruniversityleipzig.com/,,,,Lancaster.jpg
Lancaster University,LAUY4775,,,,Germany,,Leipzig,,,,http://www.lancasteruniversityleipzig.com/,,,,Lancaster.jpg
Lancaster University,LAUY4775,,,,Germany,,Leipzig,,,,http://www.lancasteruniversityleipzig.com/,,,,Lancaster.jpg
Lancaster University,LAUY4775,,,,Germany,,Leipzig,,,,http://www.lancasteruniversityleipzig.com/,,,,Lancaster.jpg
Lancaster University,LAUY4775,,,,Germany,,Leipzig,,,,http://www.lancasteruniversityleipzig.com/,,,,Lancaster.jpg
Lancaster University,LAUY4775,,,,Germany,,Leipzig,,,,http://www.lancasteruniversityleipzig.com/,,,,Lancaster.jpg
New European College,NECE4775,,,,Germany,,Munich,,,,http://www.new-european-college.com/,,,,New.jpg
New European College,NECE4775,,,,Germany,,Munich,,,,http://www.new-european-college.com/,,,,New.jpg
New European College,NECE4775,,,,Germany,,Munich,,,,http://www.new-european-college.com/,,,,New.jpg
New European College,NECE4775,,,,Germany,,Munich,,,,http://www.new-european-college.com/,,,,New.jpg
New European College,NECE4775,,,,Germany,,Munich,,,,http://www.new-european-college.com/,,,,New.jpg
New European College,NECE4775,,,,Germany,,Munich,,,,http://www.new-european-college.com/,,,,New.jpg
New European College,NECE4775,,,,Germany,,Munich,,,,http://www.new-european-college.com/,,,,New.jpg
New European College,NECE4775,,,,Germany,,Munich,,,,http://www.new-european-college.com/,,,,New.jpg
New European College,NECE4775,,,,Germany,,Munich,,,,http://www.new-european-college.com/,,,,New.jpg
New European College,NECE4775,,,,Germany,,Munich,,,,http://www.new-european-college.com/,,,,New.jpg
New European College,NECE4775,,,,Germany,,Munich,,,,http://www.new-european-college.com/,,,,New.jpg
New European College,NECE4775,,,,Germany,,Munich,,,,http://www.new-european-college.com/,,,,New.jpg
New European College,NECE4775,,,,Germany,,Munich,,,,http://www.new-european-college.com/,,,,New.jpg
New European College,NECE4775,,,,Germany,,Munich,,,,http://www.new-european-college.com/,,,,New.jpg
New European College,NECE4775,,,,Germany,,Munich,,,,http://www.new-european-college.com/,,,,New.jpg
New European College,NECE4775,,,,Germany,,Munich,,,,http://www.new-european-college.com/,,,,New.jpg
SRH Berlin University of Applied Sciences,SRHU4775,,,,Germany,,Berlin,,,,http://www.srh-hochschule-berlin.de/de/startseite/,,,,SRH.jpg
SRH Berlin University of Applied Sciences,SRHU4775,,,,Germany,,Berlin,,,,http://www.srh-hochschule-berlin.de/de/startseite/,,,,SRH.jpg
SRH Berlin University of Applied Sciences,SRHU4775,,,,Germany,,Berlin,,,,http://www.srh-hochschule-berlin.de/de/startseite/,,,,SRH.jpg
SRH Berlin University of Applied Sciences,SRHU4775,,,,Germany,,Berlin,,,,http://www.srh-hochschule-berlin.de/de/startseite/,,,,SRH.jpg
SRH Berlin University of Applied Sciences,SRHU4775,,,,Germany,,Berlin,,,,http://www.srh-hochschule-berlin.de/de/startseite/,,,,SRH.jpg
SRH Berlin University of Applied Sciences,SRHU4775,,,,Germany,,Berlin,,,,http://www.srh-hochschule-berlin.de/de/startseite/,,,,SRH.jpg
SRH Berlin University of Applied Sciences,SRHU4775,,,,Germany,,Berlin,,,,http://www.srh-hochschule-berlin.de/de/startseite/,,,,SRH.jpg
SRH Berlin University of Applied Sciences,SRHU4775,,,,Germany,,Berlin,,,,http://www.srh-hochschule-berlin.de/de/startseite/,,,,SRH.jpg
SRH Berlin University of Applied Sciences,SRHU4775,,,,Germany,,Berlin,,,,http://www.srh-hochschule-berlin.de/de/startseite/,,,,SRH.jpg
SRH Berlin University of Applied Sciences,SRHU4775,,,,Germany,,Berlin,,,,http://www.srh-hochschule-berlin.de/de/startseite/,,,,SRH.jpg
SRH Berlin University of Applied Sciences,SRHU4775,,,,Germany,,Berlin,,,,http://www.srh-hochschule-berlin.de/de/startseite/,,,,SRH.jpg
SRH Berlin University of Applied Sciences,SRHU4775,,,,Germany,,Berlin,,,,http://www.srh-hochschule-berlin.de/de/startseite/,,,,SRH.jpg
SRH Berlin University of Applied Sciences,SRHU4775,,,,Germany,,Berlin,,,,http://www.srh-hochschule-berlin.de/de/startseite/,,,,SRH.jpg
SRH Berlin University of Applied Sciences,SRHU4775,,,,Germany,,Berlin,,,,http://www.srh-hochschule-berlin.de/de/startseite/,,,,SRH.jpg
SRH Berlin University of Applied Sciences,SRHU4775,,,,Germany,,Berlin,,,,http://www.srh-hochschule-berlin.de/de/startseite/,,,,SRH.jpg
SRH Berlin University of Applied Sciences,SRHU4775,,,,Germany,,Berlin,,,,http://www.srh-hochschule-berlin.de/de/startseite/,,,,SRH.jpg
SRH Berlin University of Applied Sciences,SRHU4775,,,,Germany,,Berlin,,,,http://www.srh-hochschule-berlin.de/de/startseite/,,,,SRH.jpg
SRH Berlin University of Applied Sciences,SRHU4775,,,,Germany,,Berlin,,,,http://www.srh-hochschule-berlin.de/de/startseite/,,,,SRH.jpg
SRH Berlin University of Applied Sciences,SRHU4775,,,,Germany,,Berlin,,,,http://www.srh-hochschule-berlin.de/de/startseite/,,,,SRH.jpg
SRH Berlin University of Applied Sciences,SRHU4775,,,,Germany,,Berlin,,,,http://www.srh-hochschule-berlin.de/de/startseite/,,,,SRH.jpg
SRH Berlin University of Applied Sciences,SRHU4775,,,,Germany,,Berlin,,,,http://www.srh-hochschule-berlin.de/de/startseite/,,,,SRH.jpg
SRH Berlin University of Applied Sciences,SRHU4775,,,,Germany,,Berlin,,,,http://www.srh-hochschule-berlin.de/de/startseite/,,,,SRH.jpg
SRH Berlin University of Applied Sciences,SRHU4775,,,,Germany,,Berlin,,,,http://www.srh-hochschule-berlin.de/de/startseite/,,,,SRH.jpg
SRH Berlin University of Applied Sciences,SRHU4775,,,,Germany,,Berlin,,,,http://www.srh-hochschule-berlin.de/de/startseite/,,,,SRH.jpg
SRH Berlin University of Applied Sciences,SRHU4775,,,,Germany,,Berlin,,,,http://www.srh-hochschule-berlin.de/de/startseite/,,,,SRH.jpg
SRH Berlin University of Applied Sciences,SRHU4775,,,,Germany,,Berlin,,,,http://www.srh-hochschule-berlin.de/de/startseite/,,,,SRH.jpg
SRH Berlin University of Applied Sciences,SRHU4775,,,,Germany,,Berlin,,,,http://www.srh-hochschule-berlin.de/de/startseite/,,,,SRH.jpg
SRH Berlin University of Applied Sciences,SRHU4775,,,,Germany,,Berlin,,,,http://www.srh-hochschule-berlin.de/de/startseite/,,,,SRH.jpg
SRH Berlin University of Applied Sciences,SRHU4775,,,,Germany,,Berlin,,,,http://www.srh-hochschule-berlin.de/de/startseite/,,,,SRH.jpg
SRH Berlin University of Applied Sciences,SRHU4775,,,,Germany,,Berlin,,,,http://www.srh-hochschule-berlin.de/de/startseite/,,,,SRH.jpg
SRH Berlin University of Applied Sciences,SRHU4775,,,,Germany,,Berlin,,,,http://www.srh-hochschule-berlin.de/de/startseite/,,,,SRH.jpg
SRH Berlin University of Applied Sciences,SRHU4775,,,,Germany,,Berlin,,,,http://www.srh-hochschule-berlin.de/de/startseite/,,,,SRH.jpg
SRH Berlin University of Applied Sciences,SRHU4775,,,,Germany,,Berlin,,,,http://www.srh-hochschule-berlin.de/de/startseite/,,,,SRH.jpg
SRH Berlin University of Applied Sciences,SRHU4775,,,,Germany,,Berlin,,,,http://www.srh-hochschule-berlin.de/de/startseite/,,,,SRH.jpg
SRH Berlin University of Applied Sciences,SRHU4775,,,,Germany,,Berlin,,,,http://www.srh-hochschule-berlin.de/de/startseite/,,,,SRH.jpg
SRH Berlin University of Applied Sciences,SRHU4775,,,,Germany,,Berlin,,,,http://www.srh-hochschule-berlin.de/de/startseite/,,,,SRH.jpg
SRH Berlin University of Applied Sciences,SRHU4775,,,,Germany,,Berlin,,,,http://www.srh-hochschule-berlin.de/de/startseite/,,,,SRH.jpg
SRH Berlin University of Applied Sciences,SRHU4775,,,,Germany,,Berlin,,,,http://www.srh-hochschule-berlin.de/de/startseite/,,,,SRH.jpg
SRH Berlin University of Applied Sciences,SRHU4775,,,,Germany,,Berlin,,,,http://www.srh-hochschule-berlin.de/de/startseite/,,,,SRH.jpg
SRH Berlin University of Applied Sciences,SRHU4775,,,,Germany,,Berlin,,,,http://www.srh-hochschule-berlin.de/de/startseite/,,,,SRH.jpg
SRH Berlin University of Applied Sciences,SRHU4775,,,,Germany,,Berlin,,,,http://www.srh-hochschule-berlin.de/de/startseite/,,,,SRH.jpg
SRH Berlin University of Applied Sciences,SRHU4775,,,,Germany,,Berlin,,,,http://www.srh-hochschule-berlin.de/de/startseite/,,,,SRH.jpg
SRH Berlin University of Applied Sciences,SRHU4775,,,,Germany,,Berlin,,,,http://www.srh-hochschule-berlin.de/de/startseite/,,,,SRH.jpg
SRH Berlin University of Applied Sciences,SRHU4775,,,,Germany,,Berlin,,,,http://www.srh-hochschule-berlin.de/de/startseite/,,,,SRH.jpg
SRH Berlin University of Applied Sciences,SRHU4775,,,,Germany,,Berlin,,,,http://www.srh-hochschule-berlin.de/de/startseite/,,,,SRH.jpg
SRH Berlin University of Applied Sciences,SRHU4775,,,,Germany,,Berlin,,,,http://www.srh-hochschule-berlin.de/de/startseite/,,,,SRH.jpg
SRH Berlin University of Applied Sciences,SRHU4775,,,,Germany,,Berlin,,,,http://www.srh-hochschule-berlin.de/de/startseite/,,,,SRH.jpg
SRH Berlin University of Applied Sciences,SRHU4775,,,,Germany,,Berlin,,,,http://www.srh-hochschule-berlin.de/de/startseite/,,,,SRH.jpg
SRH Berlin University of Applied Sciences,SRHU4775,,,,Germany,,Berlin,,,,http://www.srh-hochschule-berlin.de/de/startseite/,,,,SRH.jpg
SRH Berlin University of Applied Sciences,SRHU4775,,,,Germany,,Berlin,,,,http://www.srh-hochschule-berlin.de/de/startseite/,,,,SRH.jpg
SRH Berlin University of Applied Sciences,SRHU4775,,,,Germany,,Berlin,,,,http://www.srh-hochschule-berlin.de/de/startseite/,,,,SRH.jpg
SRH Berlin University of Applied Sciences,SRHU4775,,,,Germany,,Berlin,,,,http://www.srh-hochschule-berlin.de/de/startseite/,,,,SRH.jpg
SRH Berlin University of Applied Sciences,SRHU4775,,,,Germany,,Berlin,,,,http://www.srh-hochschule-berlin.de/de/startseite/,,,,SRH.jpg
SRH Berlin University of Applied Sciences,SRHU4775,,,,Germany,,Berlin,,,,http://www.srh-hochschule-berlin.de/de/startseite/,,,,SRH.jpg
SRH Berlin University of Applied Sciences,SRHU4775,,,,Germany,,Berlin,,,,http://www.srh-hochschule-berlin.de/de/startseite/,,,,SRH.jpg
SRH Berlin University of Applied Sciences,SRHU4775,,,,Germany,,Berlin,,,,http://www.srh-hochschule-berlin.de/de/startseite/,,,,SRH.jpg
SRH Berlin University of Applied Sciences,SRHU4775,,,,Germany,,Berlin,,,,http://www.srh-hochschule-berlin.de/de/startseite/,,,,SRH.jpg
SRH Berlin University of Applied Sciences,SRHU4775,,,,Germany,,Berlin,,,,http://www.srh-hochschule-berlin.de/de/startseite/,,,,SRH.jpg
SRH Berlin University of Applied Sciences,SRHU4775,,,,Germany,,Berlin,,,,http://www.srh-hochschule-berlin.de/de/startseite/,,,,SRH.jpg
SRH Berlin University of Applied Sciences,SRHU4775,,,,Germany,,Berlin,,,,http://www.srh-hochschule-berlin.de/de/startseite/,,,,SRH.jpg
SRH Berlin University of Applied Sciences,SRHU4775,,,,Germany,,Berlin,,,,http://www.srh-hochschule-berlin.de/de/startseite/,,,,SRH.jpg
SRH Berlin University of Applied Sciences,SRHU4775,,,,Germany,,Berlin,,,,http://www.srh-hochschule-berlin.de/de/startseite/,,,,SRH.jpg
SRH Berlin University of Applied Sciences,SRHU4775,,,,Germany,,Berlin,,,,http://www.srh-hochschule-berlin.de/de/startseite/,,,,SRH.jpg
SRH Berlin University of Applied Sciences,SRHU4775,,,,Germany,,Berlin,,,,http://www.srh-hochschule-berlin.de/de/startseite/,,,,SRH.jpg
SRH Berlin University of Applied Sciences,SRHU4775,,,,Germany,,Berlin,,,,http://www.srh-hochschule-berlin.de/de/startseite/,,,,SRH.jpg
SRH Berlin University of Applied Sciences,SRHU4775,,,,Germany,,Berlin,,,,http://www.srh-hochschule-berlin.de/de/startseite/,,,,SRH.jpg
SRH Berlin University of Applied Sciences,SRHU4775,,,,Germany,,Berlin,,,,http://www.srh-hochschule-berlin.de/de/startseite/,,,,SRH.jpg
SRH Berlin University of Applied Sciences,SRHU4775,,,,Germany,,Berlin,,,,http://www.srh-hochschule-berlin.de/de/startseite/,,,,SRH.jpg
SRH Berlin University of Applied Sciences,SRHU4775,,,,Germany,,Berlin,,,,http://www.srh-hochschule-berlin.de/de/startseite/,,,,SRH.jpg
SRH Berlin University of Applied Sciences,SRHU4775,,,,Germany,,Berlin,,,,http://www.srh-hochschule-berlin.de/de/startseite/,,,,SRH.jpg
SRH Berlin University of Applied Sciences,SRHU4775,,,,Germany,,Berlin,,,,http://www.srh-hochschule-berlin.de/de/startseite/,,,,SRH.jpg
SRH Berlin University of Applied Sciences,SRHU4775,,,,Germany,,Berlin,,,,http://www.srh-hochschule-berlin.de/de/startseite/,,,,SRH.jpg
SRH Berlin University of Applied Sciences,SRHU4775,,,,Germany,,Berlin,,,,http://www.srh-hochschule-berlin.de/de/startseite/,,,,SRH.jpg
SRH Berlin University of Applied Sciences,SRHU4775,,,,Germany,,Berlin,,,,http://www.srh-hochschule-berlin.de/de/startseite/,,,,SRH.jpg
SRH Berlin University of Applied Sciences,SRHU4775,,,,Germany,,Berlin,,,,http://www.srh-hochschule-berlin.de/de/startseite/,,,,SRH.jpg
SRH Berlin University of Applied Sciences,SRHU4775,,,,Germany,,Berlin,,,,http://www.srh-hochschule-berlin.de/de/startseite/,,,,SRH.jpg
SRH Berlin University of Applied Sciences,SRHU4775,,,,Germany,,Berlin,,,,http://www.srh-hochschule-berlin.de/de/startseite/,,,,SRH.jpg
SRH Berlin University of Applied Sciences,SRHU4775,,,,Germany,,Berlin,,,,http://www.srh-hochschule-berlin.de/de/startseite/,,,,SRH.jpg
SRH Berlin University of Applied Sciences,SRHU4775,,,,Germany,,Berlin,,,,http://www.srh-hochschule-berlin.de/de/startseite/,,,,SRH.jpg
SRH Berlin University of Applied Sciences,SRHU4775,,,,Germany,,Berlin,,,,http://www.srh-hochschule-berlin.de/de/startseite/,,,,SRH.jpg
SRH Berlin University of Applied Sciences,SRHU4775,,,,Germany,,Berlin,,,,http://www.srh-hochschule-berlin.de/de/startseite/,,,,SRH.jpg
SRH Berlin University of Applied Sciences,SRHU4775,,,,Germany,,Berlin,,,,http://www.srh-hochschule-berlin.de/de/startseite/,,,,SRH.jpg
SRH Berlin University of Applied Sciences,SRHU4775,,,,Germany,,Berlin,,,,http://www.srh-hochschule-berlin.de/de/startseite/,,,,SRH.jpg
SRH Berlin University of Applied Sciences,SRHU4775,,,,Germany,,Berlin,,,,http://www.srh-hochschule-berlin.de/de/startseite/,,,,SRH.jpg
SRH Berlin University of Applied Sciences,SRHU4775,,,,Germany,,Berlin,,,,http://www.srh-hochschule-berlin.de/de/startseite/,,,,SRH.jpg
SRH Berlin University of Applied Sciences,SRHU4775,,,,Germany,,Berlin,,,,http://www.srh-hochschule-berlin.de/de/startseite/,,,,SRH.jpg
SRH Berlin University of Applied Sciences,SRHU4775,,,,Germany,,Berlin,,,,http://www.srh-hochschule-berlin.de/de/startseite/,,,,SRH.jpg
SRH Berlin University of Applied Sciences,SRHU4775,,,,Germany,,Berlin,,,,http://www.srh-hochschule-berlin.de/de/startseite/,,,,SRH.jpg
SRH Berlin University of Applied Sciences,SRHU4775,,,,Germany,,Berlin,,,,http://www.srh-hochschule-berlin.de/de/startseite/,,,,SRH.jpg
SRH Berlin University of Applied Sciences,SRHU4775,,,,Germany,,Berlin,,,,http://www.srh-hochschule-berlin.de/de/startseite/,,,,SRH.jpg
SRH Berlin University of Applied Sciences,SRHU4775,,,,Germany,,Berlin,,,,http://www.srh-hochschule-berlin.de/de/startseite/,,,,SRH.jpg
SRH Berlin University of Applied Sciences,SRHU4775,,,,Germany,,Berlin,,,,http://www.srh-hochschule-berlin.de/de/startseite/,,,,SRH.jpg
SRH Berlin University of Applied Sciences,SRHU4775,,,,Germany,,Berlin,,,,http://www.srh-hochschule-berlin.de/de/startseite/,,,,SRH.jpg
SRH Berlin University of Applied Sciences,SRHU4775,,,,Germany,,Berlin,,,,http://www.srh-hochschule-berlin.de/de/startseite/,,,,SRH.jpg
SRH Berlin University of Applied Sciences,SRHU4775,,,,Germany,,Berlin,,,,http://www.srh-hochschule-berlin.de/de/startseite/,,,,SRH.jpg
SRH Berlin University of Applied Sciences,SRHU4775,,,,Germany,,Berlin,,,,http://www.srh-hochschule-berlin.de/de/startseite/,,,,SRH.jpg
SRH Berlin University of Applied Sciences,SRHU4775,,,,Germany,,Berlin,,,,http://www.srh-hochschule-berlin.de/de/startseite/,,,,SRH.jpg
SRH Berlin University of Applied Sciences,SRHU4775,,,,Germany,,Berlin,,,,http://www.srh-hochschule-berlin.de/de/startseite/,,,,SRH.jpg
SRH Berlin University of Applied Sciences,SRHU4775,,,,Germany,,Berlin,,,,http://www.srh-hochschule-berlin.de/de/startseite/,,,,SRH.jpg
SRH Berlin University of Applied Sciences,SRHU4775,,,,Germany,,Berlin,,,,http://www.srh-hochschule-berlin.de/de/startseite/,,,,SRH.jpg
SRH Berlin University of Applied Sciences,SRHU4775,,,,Germany,,Berlin,,,,http://www.srh-hochschule-berlin.de/de/startseite/,,,,SRH.jpg
SRH Berlin University of Applied Sciences,SRHU4775,,,,Germany,,Berlin,,,,http://www.srh-hochschule-berlin.de/de/startseite/,,,,SRH.jpg
SRH Berlin University of Applied Sciences,SRHU4775,,,,Germany,,Berlin,,,,http://www.srh-hochschule-berlin.de/de/startseite/,,,,SRH.jpg
SRH Berlin University of Applied Sciences,SRHU4775,,,,Germany,,Berlin,,,,http://www.srh-hochschule-berlin.de/de/startseite/,,,,SRH.jpg
SRH Berlin University of Applied Sciences,SRHU4775,,,,Germany,,Berlin,,,,http://www.srh-hochschule-berlin.de/de/startseite/,,,,SRH.jpg
SRH Berlin University of Applied Sciences,SRHU4775,,,,Germany,,Berlin,,,,http://www.srh-hochschule-berlin.de/de/startseite/,,,,SRH.jpg
SRH Berlin University of Applied Sciences,SRHU4775,,,,Germany,,Berlin,,,,http://www.srh-hochschule-berlin.de/de/startseite/,,,,SRH.jpg
SRH Berlin University of Applied Sciences,SRHU4775,,,,Germany,,Berlin,,,,http://www.srh-hochschule-berlin.de/de/startseite/,,,,SRH.jpg
SRH Berlin University of Applied Sciences,SRHU4775,,,,Germany,,Berlin,,,,http://www.srh-hochschule-berlin.de/de/startseite/,,,,SRH.jpg
SRH Berlin University of Applied Sciences,SRHU4775,,,,Germany,,Berlin,,,,http://www.srh-hochschule-berlin.de/de/startseite/,,,,SRH.jpg
SRH Berlin University of Applied Sciences,SRHU4775,,,,Germany,,Berlin,,,,http://www.srh-hochschule-berlin.de/de/startseite/,,,,SRH.jpg
SRH Berlin University of Applied Sciences,SRHU4775,,,,Germany,,Berlin,,,,http://www.srh-hochschule-berlin.de/de/startseite/,,,,SRH.jpg
SRH Berlin University of Applied Sciences,SRHU4775,,,,Germany,,Berlin,,,,http://www.srh-hochschule-berlin.de/de/startseite/,,,,SRH.jpg
SRH Berlin University of Applied Sciences,SRHU4775,,,,Germany,,Berlin,,,,http://www.srh-hochschule-berlin.de/de/startseite/,,,,SRH.jpg
SRH Berlin University of Applied Sciences,SRHU4775,,,,Germany,,Berlin,,,,http://www.srh-hochschule-berlin.de/de/startseite/,,,,SRH.jpg
SRH Berlin University of Applied Sciences,SRHU4775,,,,Germany,,Berlin,,,,http://www.srh-hochschule-berlin.de/de/startseite/,,,,SRH.jpg
SRH Berlin University of Applied Sciences,SRHU4775,,,,Germany,,Berlin,,,,http://www.srh-hochschule-berlin.de/de/startseite/,,,,SRH.jpg
SRH Berlin University of Applied Sciences,SRHU4775,,,,Germany,,Berlin,,,,http://www.srh-hochschule-berlin.de/de/startseite/,,,,SRH.jpg
SRH Berlin University of Applied Sciences,SRHU4775,,,,Germany,,Berlin,,,,http://www.srh-hochschule-berlin.de/de/startseite/,,,,SRH.jpg
SRH Berlin University of Applied Sciences,SRHU4775,,,,Germany,,Berlin,,,,http://www.srh-hochschule-berlin.de/de/startseite/,,,,SRH.jpg
SRH Berlin University of Applied Sciences,SRHU4775,,,,Germany,,Berlin,,,,http://www.srh-hochschule-berlin.de/de/startseite/,,,,SRH.jpg
SRH Berlin University of Applied Sciences,SRHU4775,,,,Germany,,Berlin,,,,http://www.srh-hochschule-berlin.de/de/startseite/,,,,SRH.jpg
SRH Berlin University of Applied Sciences,SRHU4775,,,,Germany,,Berlin,,,,http://www.srh-hochschule-berlin.de/de/startseite/,,,,SRH.jpg
SRH Berlin University of Applied Sciences,SRHU4775,,,,Germany,,Berlin,,,,http://www.srh-hochschule-berlin.de/de/startseite/,,,,SRH.jpg
SRH Berlin University of Applied Sciences,SRHU4775,,,,Germany,,Berlin,,,,http://www.srh-hochschule-berlin.de/de/startseite/,,,,SRH.jpg
SRH Berlin University of Applied Sciences,SRHU4775,,,,Germany,,Berlin,,,,http://www.srh-hochschule-berlin.de/de/startseite/,,,,SRH.jpg
SRH Berlin University of Applied Sciences,SRHU4775,,,,Germany,,Berlin,,,,http://www.srh-hochschule-berlin.de/de/startseite/,,,,SRH.jpg
SRH Berlin University of Applied Sciences,SRHU4775,,,,Germany,,Berlin,,,,http://www.srh-hochschule-berlin.de/de/startseite/,,,,SRH.jpg
SRH Berlin University of Applied Sciences,SRHU4775,,,,Germany,,Berlin,,,,http://www.srh-hochschule-berlin.de/de/startseite/,,,,SRH.jpg
SRH Berlin University of Applied Sciences,SRHU4775,,,,Germany,,Berlin,,,,http://www.srh-hochschule-berlin.de/de/startseite/,,,,SRH.jpg
SRH Berlin University of Applied Sciences,SRHU4775,,,,Germany,,Berlin,,,,http://www.srh-hochschule-berlin.de/de/startseite/,,,,SRH.jpg
SRH Berlin University of Applied Sciences,SRHU4775,,,,Germany,,Berlin,,,,http://www.srh-hochschule-berlin.de/de/startseite/,,,,SRH.jpg
SRH Berlin University of Applied Sciences,SRHU4775,,,,Germany,,Berlin,,,,http://www.srh-hochschule-berlin.de/de/startseite/,,,,SRH.jpg
SRH Berlin University of Applied Sciences,SRHU4775,,,,Germany,,Berlin,,,,http://www.srh-hochschule-berlin.de/de/startseite/,,,,SRH.jpg
SRH Berlin University of Applied Sciences,SRHU4775,,,,Germany,,Berlin,,,,http://www.srh-hochschule-berlin.de/de/startseite/,,,,SRH.jpg
SRH Berlin University of Applied Sciences,SRHU4775,,,,Germany,,Berlin,,,,http://www.srh-hochschule-berlin.de/de/startseite/,,,,SRH.jpg
SRH Berlin University of Applied Sciences,SRHU4775,,,,Germany,,Berlin,,,,http://www.srh-hochschule-berlin.de/de/startseite/,,,,SRH.jpg
SRH Berlin University of Applied Sciences,SRHU4775,,,,Germany,,Berlin,,,,http://www.srh-hochschule-berlin.de/de/startseite/,,,,SRH.jpg
SRH Berlin University of Applied Sciences,SRHU4775,,,,Germany,,Berlin,,,,http://www.srh-hochschule-berlin.de/de/startseite/,,,,SRH.jpg
SRH Berlin University of Applied Sciences,SRHU4775,,,,Germany,,Berlin,,,,http://www.srh-hochschule-berlin.de/de/startseite/,,,,SRH.jpg
SRH Berlin University of Applied Sciences,SRHU4775,,,,Germany,,Berlin,,,,http://www.srh-hochschule-berlin.de/de/startseite/,,,,SRH.jpg
SRH Berlin University of Applied Sciences,SRHU4775,,,,Germany,,Berlin,,,,http://www.srh-hochschule-berlin.de/de/startseite/,,,,SRH.jpg
SRH Berlin University of Applied Sciences,SRHU4775,,,,Germany,,Berlin,,,,http://www.srh-hochschule-berlin.de/de/startseite/,,,,SRH.jpg
SRH Berlin University of Applied Sciences,SRHU4775,,,,Germany,,Berlin,,,,http://www.srh-hochschule-berlin.de/de/startseite/,,,,SRH.jpg
University of Europe for Applied Sciences,UEAS4775,,,,Germany,,Berlin,,,,http://www.btk-fh.de/,,,,University.jpg
University of Europe for Applied Sciences,UEAS4775,,,,Germany,,Berlin,,,,http://www.btk-fh.de/,,,,University.jpg
University of Europe for Applied Sciences,UEAS4775,,,,Germany,,Berlin,,,,http://www.btk-fh.de/,,,,University.jpg
University of Europe for Applied Sciences,UEAS4775,,,,Germany,,Berlin,,,,http://www.btk-fh.de/,,,,University.jpg
University of Europe for Applied Sciences,UEAS4775,,,,Germany,,Berlin,,,,http://www.btk-fh.de/,,,,University.jpg
University of Europe for Applied Sciences,UEAS4775,,,,Germany,,Berlin,,,,http://www.btk-fh.de/,,,,University.jpg
University of Europe for Applied Sciences,UEAS4775,,,,Germany,,Berlin,,,,http://www.btk-fh.de/,,,,University.jpg
University of Europe for Applied Sciences,UEAS4775,,,,Germany,,Berlin,,,,http://www.btk-fh.de/,,,,University.jpg
University of Europe for Applied Sciences,UEAS4775,,,,Germany,,Berlin,,,,http://www.btk-fh.de/,,,,University.jpg
University of Europe for Applied Sciences,UEAS4775,,,,Germany,,Berlin,,,,http://www.btk-fh.de/,,,,University.jpg
University of Europe for Applied Sciences,UEAS4775,,,,Germany,,Berlin,,,,http://www.btk-fh.de/,,,,University.jpg
University of Europe for Applied Sciences,UEAS4775,,,,Germany,,Berlin,,,,http://www.btk-fh.de/,,,,University.jpg
University of Europe for Applied Sciences,UEAS4775,,,,Germany,,Berlin,,,,http://www.btk-fh.de/,,,,University.jpg
University of Europe for Applied Sciences,UEAS4775,,,,Germany,,Berlin,,,,http://www.btk-fh.de/,,,,University.jpg
University of Europe for Applied Sciences,UEAS4775,,,,Germany,,Berlin,,,,http://www.btk-fh.de/,,,,University.jpg
University of Europe for Applied Sciences,UEAS4775,,,,Germany,,Berlin,,,,http://www.btk-fh.de/,,,,University.jpg
University of Europe for Applied Sciences,UEAS4775,,,,Germany,,Berlin,,,,http://www.btk-fh.de/,,,,University.jpg
University of Europe for Applied Sciences,UEAS4775,,,,Germany,,Berlin,,,,http://www.btk-fh.de/,,,,University.jpg
University of Europe for Applied Sciences,UEAS4775,,,,Germany,,Berlin,,,,http://www.btk-fh.de/,,,,University.jpg
University of Europe for Applied Sciences,UEAS4775,,,,Germany,,Berlin,,,,http://www.btk-fh.de/,,,,University.jpg
University of Europe for Applied Sciences,UEAS4775,,,,Germany,,Berlin,,,,http://www.btk-fh.de/,,,,University.jpg
University of Europe for Applied Sciences,UEAS4775,,,,Germany,,Berlin,,,,http://www.btk-fh.de/,,,,University.jpg
University of Europe for Applied Sciences,UEAS4775,,,,Germany,,Berlin,,,,http://www.btk-fh.de/,,,,University.jpg
University of Europe for Applied Sciences,UEAS4775,,,,Germany,,Berlin,,,,http://www.btk-fh.de/,,,,University.jpg
University of Europe for Applied Sciences,UEAS4775,,,,Germany,,Berlin,,,,http://www.btk-fh.de/,,,,University.jpg
University of Europe for Applied Sciences,UEAS4775,,,,Germany,,Berlin,,,,http://www.btk-fh.de/,,,,University.jpg
University of Europe for Applied Sciences,UEAS4775,,,,Germany,,Berlin,,,,http://www.btk-fh.de/,,,,University.jpg
University of Europe for Applied Sciences,UEAS4775,,,,Germany,,Berlin,,,,http://www.btk-fh.de/,,,,University.jpg
University of Europe for Applied Sciences,UEAS4775,,,,Germany,,Berlin,,,,http://www.btk-fh.de/,,,,University.jpg
University of Europe for Applied Sciences,UEAS4775,,,,Germany,,Berlin,,,,http://www.btk-fh.de/,,,,University.jpg
University of Europe for Applied Sciences,UEAS4775,,,,Germany,,Berlin,,,,http://www.btk-fh.de/,,,,University.jpg
University of Europe for Applied Sciences,UEAS4775,,,,Germany,,Berlin,,,,http://www.btk-fh.de/,,,,University.jpg
University of Europe for Applied Sciences,UEAS4775,,,,Germany,,Berlin,,,,http://www.btk-fh.de/,,,,University.jpg
University of Europe for Applied Sciences,UEAS4775,,,,Germany,,Berlin,,,,http://www.btk-fh.de/,,,,University.jpg
University of Europe for Applied Sciences,UEAS4775,,,,Germany,,Berlin,,,,http://www.btk-fh.de/,,,,University.jpg
University of Europe for Applied Sciences,UEAS4775,,,,Germany,,Berlin,,,,http://www.btk-fh.de/,,,,University.jpg
University of Europe for Applied Sciences,UEAS4775,,,,Germany,,Berlin,,,,http://www.btk-fh.de/,,,,University.jpg
University of Europe for Applied Sciences,UEAS4775,,,,Germany,,Berlin,,,,http://www.btk-fh.de/,,,,University.jpg
University of Europe for Applied Sciences,UEAS4775,,,,Germany,,Berlin,,,,http://www.btk-fh.de/,,,,University.jpg
University of Europe for Applied Sciences,UEAS4775,,,,Germany,,Berlin,,,,http://www.btk-fh.de/,,,,University.jpg
University of Europe for Applied Sciences,UEAS4775,,,,Germany,,Berlin,,,,http://www.btk-fh.de/,,,,University.jpg
University of Europe for Applied Sciences,UEAS4775,,,,Germany,,Berlin,,,,http://www.btk-fh.de/,,,,University.jpg
University of Europe for Applied Sciences,UEAS4775,,,,Germany,,Berlin,,,,http://www.btk-fh.de/,,,,University.jpg
University of Europe for Applied Sciences,UEAS4775,,,,Germany,,Berlin,,,,http://www.btk-fh.de/,,,,University.jpg
University of Europe for Applied Sciences,UEAS4775,,,,Germany,,Berlin,,,,http://www.btk-fh.de/,,,,University.jpg
University of Europe for Applied Sciences,UEAS4775,,,,Germany,,Berlin,,,,http://www.btk-fh.de/,,,,University.jpg
University of Europe for Applied Sciences,UEAS4775,,,,Germany,,Berlin,,,,http://www.btk-fh.de/,,,,University.jpg
University of Europe for Applied Sciences,UEAS4775,,,,Germany,,Berlin,,,,http://www.btk-fh.de/,,,,University.jpg
University of Europe for Applied Sciences,UEAS4775,,,,Germany,,Berlin,,,,http://www.btk-fh.de/,,,,University.jpg
University of Europe for Applied Sciences,UEAS4775,,,,Germany,,Berlin,,,,http://www.btk-fh.de/,,,,University.jpg
University of Europe for Applied Sciences,UEAS4775,,,,Germany,,Berlin,,,,http://www.btk-fh.de/,,,,University.jpg
University of Europe for Applied Sciences,UEAS4775,,,,Germany,,Berlin,,,,http://www.btk-fh.de/,,,,University.jpg
University of Europe for Applied Sciences,UEAS4775,,,,Germany,,Berlin,,,,http://www.btk-fh.de/,,,,University.jpg
University of Europe for Applied Sciences,UEAS4775,,,,Germany,,Berlin,,,,http://www.btk-fh.de/,,,,University.jpg
University of Europe for Applied Sciences,UEAS4775,,,,Germany,,Berlin,,,,http://www.btk-fh.de/,,,,University.jpg
University of Europe for Applied Sciences,UEAS4775,,,,Germany,,Berlin,,,,http://www.btk-fh.de/,,,,University.jpg
University of Europe for Applied Sciences,UEAS4775,,,,Germany,,Berlin,,,,http://www.btk-fh.de/,,,,University.jpg
University of Europe for Applied Sciences,UEAS4775,,,,Germany,,Berlin,,,,http://www.btk-fh.de/,,,,University.jpg
University of Europe for Applied Sciences,UEAS4775,,,,Germany,,Berlin,,,,http://www.btk-fh.de/,,,,University.jpg
University of Europe for Applied Sciences,UEAS4775,,,,Germany,,Berlin,,,,http://www.btk-fh.de/,,,,University.jpg
University of Europe for Applied Sciences,UEAS4775,,,,Germany,,Berlin,,,,http://www.btk-fh.de/,,,,University.jpg
University of Europe for Applied Sciences,UEAS4775,,,,Germany,,Berlin,,,,http://www.btk-fh.de/,,,,University.jpg
University of Europe for Applied Sciences,UEAS4775,,,,Germany,,Berlin,,,,http://www.btk-fh.de/,,,,University.jpg
University of Europe for Applied Sciences,UEAS4775,,,,Germany,,Berlin,,,,http://www.btk-fh.de/,,,,University.jpg
University of Europe for Applied Sciences,UEAS4775,,,,Germany,,Berlin,,,,http://www.btk-fh.de/,,,,University.jpg
University of Europe for Applied Sciences,UEAS4775,,,,Germany,,Berlin,,,,http://www.btk-fh.de/,,,,University.jpg
University of Europe for Applied Sciences,UEAS4775,,,,Germany,,Berlin,,,,http://www.btk-fh.de/,,,,University.jpg
